id,name,phone,email,street,street2,zip,city,is_company,user_id/id
__setup__.partner_43a06ea71015b659ab1dfabbf368679e50b37635,Konstantine,,,Browning,,32941,Melbourne,true,
__setup__.partner_ebfd18ee4ef33195a0962379d50bee4f970417d9,Isabelle,,iferfulle1@cnet.com,Homewood,Trail,30028 CEDEX 9,Nîmes,true,base.user_admin
__setup__.partner_f0e62ea3c4140fe053d62b0bfc97f3fcb44ad6f2,Joela,,jridsdale2@creativecommons.org,Becker,,442965,Chemodanovka,true,base.user_admin
__setup__.partner_d3b2eed05e39771f6d5d5ad1ea68971c55d4dbc2,Odey,+64-857-701-0880,ocobon3@illinois.edu,Hanson,,7947,Pleasant Point,true,base.user_admin
__setup__.partner_c593cef826bd29d8fbfefc53e3435dd8d385e0f5,Konstantine,+967-176-617-4088,,Longview,,,Ash Shaykh ‘Uthmān,true,error.wrong_xmlid
__setup__.partner_4123b4c1cf04d77d7006ea961ad5ae9f4987256e,Kip,,kpires5@java.com,Larry,,34788,Francisco Villa,false,base.user_admin
__setup__.partner_916d7dcde0991c46030644ec698ec634c069ddff,Tommy,,tsewards6@tripod.com,Farmco,Court,4404,Nyíregyháza,false,base.user_admin
__setup__.partner_f21df383c8f9a6c23b19b3254772a6fe832d469c,Gussi,,gcanellas7@seesaa.net,Summer Ridge,,,Menampukrajan,true,base.user_admin
__setup__.partner_45af6a93eb009643f3e7933d612939a56dd1860d,Koressa,,kgloyens8@jiathis.com,Ludington,,,Sumbergayam,true,base.user_admin
__setup__.partner_5ddb6405af7c10a0f0d3cf1a2f4ff0edc1c1ca41,Stephani,,stregear9@ning.com,Randy,,11806,Santo Domingo Este,false,base.user_admin
__setup__.partner_fe05965d18993e84b74b5addd83f02824bc1a9dc,Else,,efogela@hibu.com,Crowley,,,Guicheng,false,base.user_admin
__setup__.partner_2ee3b15bf49433c56f99bde4c658e701952886b6,Ingrim,,ilathayeb@vk.com,Division,,427645,Smolenka,false,base.user_admin
__setup__.partner_7607ff9c33ff29c05f3ca3531493b05d2caf56ae,Leticia,,lgaleroc@purevolume.com,Arkansas,,,Chikeng,false,base.user_admin
__setup__.partner_e697616bb6acb235eaf2fa4b0ecdcf69acb79cae,Mahmoud,,mbartaluccid@behance.net,Anzinger,,,Nyimba,false,base.user_admin
__setup__.partner_a7622edb99c2558fc6181a44b2987f758fe009e8,Vinni,,,Petterle,,,Dongping,false,
__setup__.partner_e05cadeb01198863e8f8319e9cdb224b4da23e33,Ermanno,+7-626-861-3671,,Shasta,Park,612140,Darovskoy,true,
__setup__.partner_6db54ed1809fc86c3028c2542c880a245d325efa,Dalli,+63-823-453-1378,dcuffling@virginia.edu,La Follette,,1114,Salvacion,false,base.user_admin
__setup__.partner_d5e9e7e4caae3ccb756bdeaac7d0df23d913411c,Cinda,+965-586-981-3325,,Di Loreto,,,Salwá,true,
__setup__.partner_da0230ccc4782a36d8cade80f0cc602e68c0bf5f,Flemming,,,Melody,,,Yilkiqi,false,
__setup__.partner_72c2d82f5249fb2c19121c78e59106c7f6c8ac9d,Sybilla,+86-659-856-0083,,Graceland,,,Quanxi,false,
__setup__.partner_503a7234167dbf318176f0b4420c22563cf65401,Chickie,,,Oakridge,,49117 CEDEX,Saint-Pierre-Montlimart,false,
__setup__.partner_169e22e56af17782b8ec45336ac175e5867b5295,Phebe,,pmeasl@1und1.de,Springview,,29785-000,Barreiro do Jaíba,true,base.user_admin
__setup__.partner_d1e65901a05655a250ea1ac52fd3e56e2f5e8440,Edith,,,Granby,,676581,Ekimchan,true,
__setup__.partner_dcfb18d95fe8a79b1e11c59d6f37b7e1c7872aeb,Lilyan,,lshawcroftn@ocn.ne.jp,Arkansas,Crossing,32236,Jacksonville,true,base.user_admin
__setup__.partner_af88ec8b2ef059c9ecd7361732935c1d07030823,Owen,,owoodfino@ovh.net,Spaight,,0472,Oslo,false,base.user_admin
__setup__.partner_3225b464f62df25bdc64d902054ba277486b3bc9,Grier,,,Eastlawn,,,Hong Kong,false,
__setup__.partner_e6062878f003e30666227d10a62e624bc288fd09,Franklyn,,,Rockefeller,,,Krasnapollye,false,
__setup__.partner_9ebdca4ea318e9a6f7af08c3431628fa8296d28b,Austen,,,Reindahl,,,Muli,false,
__setup__.partner_70a7507e33d8d13e5d1db5177931111ce593d035,Roselia,+86-839-895-6228,rsakets@plala.or.jp,Beilfuss,,,Xin’an,true,base.user_admin
__setup__.partner_d921b86a9435f0efa66e3f796cacc8503abab1a4,Roana,,rwaterhoust@latimes.com,Farragut,,,Loyew,true,base.user_admin
__setup__.partner_ae3efe836bde1ef9959c57b7392f164ecfc174f8,Rae,,rmannieu@google.fr,Randy,Pass,,Baiyang,true,base.user_admin
__setup__.partner_100d401e8c4d02bb4669f86b139a2eb8ca49b5a4,Koral,,ksnoxillv@paginegialle.it,4th,Pass,28-411,Michałów,false,base.user_admin
__setup__.partner_43bd6cfd0d392ab23a8e804bd9685d2a3b1db779,Whitney,,wedglerw@paginegialle.it,Kropf,,,Yara,true,base.user_admin
__setup__.partner_1a6899224307d6a7e7ecd74951be76bef773207d,Bryanty,,bmarcosx@4shared.com,Melby,Court,664 55,Moutnice,true,base.user_admin
__setup__.partner_c810b937f7b37458f7c27455ac3a9751845a27d4,Jemmie,+62-557-469-4593,,Holy Cross,Park,,Wotan,false,
__setup__.partner_856662f1f4d64817e8c82a7b7f4d826707d97de9,Janaya,,jsnookz@netlog.com,Buhler,,,Shanlian,true,base.user_admin
__setup__.partner_fbb8eff83a7ece031c3db486507bc3e61dfd581b,Audrey,,amcgrorty10@buzzfeed.com,Grayhawk,,7407,Baunu-Timbangan,false,base.user_admin
__setup__.partner_88423baf7f45a5b5fa1bbc58f27141c0a9d97227,Rossy,,,Mitchell,,49444,Muskegon,true,
__setup__.partner_f500ec7b930def4f9391aa29fc30c8c4abba0358,Clarey,+62-266-914-7325,cwheelton12@opensource.org,1st,,,Jayawangi,false,base.user_admin
__setup__.partner_467fd418e12d1097abf7795e5cd2409eadf15a67,Ole,+98-205-903-3488,oscamaden13@si.edu,Debra,,,Bīleh Savār,false,base.user_admin
__setup__.partner_6bd95c985b2b0fef22bd4bf14aab6943bb202d79,Burlie,+57-225-705-1537,bjessel14@google.it,Corry,,231048,Lorica,false,base.user_admin
__setup__.partner_b606926da1055c8ae899c4339ef9aafada8c48e6,Danella,,dsansam15@ehow.com,Browning,,07-440,Goworowo,false,base.user_admin
__setup__.partner_fe5cb7b7ae7cd3d7bb2c07c875028480d047124e,Llewellyn,,,Loftsgordon,,75434 CEDEX 09,Paris 09,true,
__setup__.partner_562f5c9513e11aa8ceca94a4bf9dbd7699609a9d,Krissie,,,Mendota,,572 32,Oskarshamn,true,
__setup__.partner_1de6ff0976afa1dc81bf34e3b9da57f55661715d,Claudius,,,Heath,,,Huancaray,false,
__setup__.partner_bdca30a28a77fec94fe225750ae4357838da8fc0,Ginger,,gnolder19@prnewswire.com,Springs,Junction,51009,Santa Maria,true,base.user_admin
__setup__.partner_f492a123e461ca9cb5e67e6b9f2fe30cd59824e4,Alyosha,,,Hansons,,,Loudi,false,
__setup__.partner_4ee4065107a5211bb0b7a3b0b2d116ed14bf649e,Romain,,,Autumn Leaf,,,Xiaoweizhai,false,
__setup__.partner_75a4e207c8f67825a249b9f7f1224a70b8f25100,Brandy,,,Maywood,Road,4323,Santa Catalina Norte,true,
__setup__.partner_e664e745bc2d7af5a1f3dc29bec67e18af4773df,Nertie,,,Lakewood,,86000,Phatthalung,false,
__setup__.partner_b3c646d8938014c356e877d202d57e3752a8ff68,Ardelle,+380-427-661-6730,aelder1e@buzzfeed.com,Forster,,,Kaniv,false,base.user_admin
__setup__.partner_ffb8d910708da799483dbd98a74f2dcaac1a647a,Maggi,,mjewell1f@bravesites.com,Anderson,,42207,Vinica,true,base.user_admin
__setup__.partner_0fd022c8e4c5d231bf382c5f3177c15a280a1be4,Yale,+963-944-906-6768,yesherwood1g@topsy.com,Dennis,,,Shaykh al Ḩadīd,false,base.user_admin
__setup__.partner_bb69a46ea7ee0e90e12640145ebef2499239399c,Budd,+33-547-201-9953,bparken1h@loc.gov,Troy,,95445 CEDEX,Domont,false,base.user_admin
__setup__.partner_764ef0f27e4bb19d3efd45cc15efb272e9a2e3d5,Mac,+380-226-177-4759,mhugland1i@artisteer.com,Northland,,,Dubno,false,base.user_admin
__setup__.partner_54fb87af30ef1224da3f8a1b396d153c61e3b5a7,Bride,,baldwinckle1j@joomla.org,Killdeer,Crossing,,Bingfang,false,base.user_admin
__setup__.partner_d199292560c625915ba4a29d3b312ce91bf37ed5,Bevvy,+353-450-696-2543,,Acker,,P81,Farranacoush,true,
__setup__.partner_0dd83fda43985df9f478e236d1bac2a05a61967e,Demeter,,dpelzer1l@mysql.com,Namekagon,,,Dadiharja,true,base.user_admin
__setup__.partner_656b817f01c0de5e95250edf2371beee1278812c,Alfy,,abelfitt1m@elegantthemes.com,Blackbird,,,Yamoussoukro,false,base.user_admin
__setup__.partner_403aee5c1b57e55fefe05dbfd71c264f372fec77,Hermione,,hburtwhistle1n@yale.edu,Delladonna,,,Dongping,true,base.user_admin
__setup__.partner_816cf783c3175f675f9faffd8623ba7db8e3974e,Corey,+81-651-637-9187,,Northridge,Junction,503-0644,Aisai,false,
__setup__.partner_c7b7068d197ec89bcdf558f2e52e0cd9efbbbdf8,Oliver,+850-777-673-7304,,Cambridge,,,Hyesan-si,false,
__setup__.partner_40f3f169d66801de39253dce21f9b189ad154637,Etienne,,,Carioca,,4760-018,Antas,false,
__setup__.partner_6b98a4c28420e9e79986cad22f00d1eaf51b557a,Fernanda,+7-236-926-8892,feckery1r@blinklist.com,Elmside,Center,385141,Yablonovskiy,false,base.user_admin
__setup__.partner_60e890f2538a42fb5257b4662bda709508c5a328,Gabie,+62-958-603-1636,,Cordelia,,,Oekuu,false,
__setup__.partner_1a470d2e342f52648f8d1ebd2654637a779ba7ab,Godwin,+86-354-317-7361,ggarr1t@privacy.gov.au,Transport,Terrace,,Dula’er Ewenke Minzu,false,base.user_admin
__setup__.partner_1276bb967836582914ee2bd3e3f76b88aa3beac5,Aymer,+86-104-427-8808,,School,,,Shuangshi,true,
__setup__.partner_b7d1cc4984a61e89759e32ba68a81dafd856f08d,Charyl,,cwolpert1v@ebay.com,Holy Cross,,,Gebang,true,base.user_admin
__setup__.partner_88b30f528867b9be97280c13b27d0fc4eba98f35,Ashli,,,Derek,,,Heret,false,
__setup__.partner_36b9eb24fbc5441a5075f3f806afd8b97141afe2,Humfrey,,hmitkov1x@independent.co.uk,Briar Crest,Point,4403,Magarao,false,base.user_admin
__setup__.partner_920c91004f527b62c00bb458fc3c0e32c0dcd714,Maire,,mharnwell1y@columbia.edu,Ridge Oak,,730507,Piedras,true,base.user_admin
__setup__.partner_004687bf4193376e92a7f232b0b464aeb3eccb57,Justen,+63-404-327-4156,jgiven1z@csmonitor.com,Monterey,,1091,Batobato,true,base.user_admin
__setup__.partner_e0d80b637b24ddf6babc34d5699b3aa198955513,Odelia,,,Kingsford,Park,1058,København,true,
__setup__.partner_b9de1facd34864f3ab4666994d7589c8ac18a300,Gerti,+66-832-309-4169,,Sutteridge,,77120,Pran Buri,true,
__setup__.partner_f852662cf17bb290c409c0662569dc10482e45d5,Sada,,,Center,,18160,Sao Hai,true,
__setup__.partner_7c279973a70a74c945c4dc356aa1b9f7fbe8904e,Lynette,,,Shoshone,,,Quilmaná,false,
__setup__.partner_cc73a1b7e3d0e2967d47ebef2cd23e98d7215e33,Shamus,,,High Crossing,,26-330,Żarnów,true,
__setup__.partner_72b016a308bd983735103160a7e12cfc5c2348f5,Pietro,+57-690-803-0820,pgyngyll25@twitter.com,Burning Wood,,731067,Murillo,false,base.user_admin
__setup__.partner_2eb6febd711eb8a76cf6b2c8d67e5712b97a0e53,Dollie,+1-378-101-9215,dbye26@cmu.edu,Prairie Rose,Road,,Four Cross Roads,true,base.user_admin
__setup__.partner_49dc2242676bae647ec1b9251444488ea6ee764a,Ely,+62-575-351-8994,ebowring27@hhs.gov,Swallow,,,Tobilolong,false,base.user_admin
__setup__.partner_77bff73fee2bbacb84791e87232add6a65eb6199,Ev,+389-725-923-0625,ehuckell28@youtube.com,Derek,,1219,Golema Rečica,false,base.user_admin
__setup__.partner_4527fc52e759cc2d75f0c2bdf191a85253f382d7,Rica,,,Butternut,,641780,Polovinnoye,true,
__setup__.partner_7a9830997d7e7aec8585e94e8e0916e6eb26ab07,Roseanna,+351-102-175-0182,,Carpenter,,9600-213,Ribeira Seca,false,
__setup__.partner_13fe5d18b50a2c0cfd85d84203bd50b64f9b578c,Ceciley,,cschankelborg2b@theguardian.com,Anthes,,3070-385,Presa,true,base.user_admin
__setup__.partner_a674011e6c22fc9db711f27f3925085b8e66bc81,Carry,+380-161-560-9154,,Granby,,,Khotiv,false,
__setup__.partner_eb86b9794b938fb9caaaefd76425f23ad6228850,Kimmie,+57-933-366-5065,kblazdell2d@com.com,Chinook,,520006,Calimita,false,base.user_admin
__setup__.partner_ac33d11a1bac5440eba3d81755ef95cf429d84e1,Kassie,+51-507-303-7482,,Westridge,,,Carabayllo,true,
__setup__.partner_596aa7482269e5b22f820a89493bd8f37c2d2009,Ingram,,,Leroy,,,Xianghua,false,
__setup__.partner_0e65b1bac07d946d9d2bdafdeed57c54fef2282a,Othilia,,omugleston2g@discuz.net,Bay,Avenue,,Trinidad,false,base.user_admin
__setup__.partner_064d33e62e1ac07d4097458b2344b85b0df36395,Judon,,,Rockefeller,,,Beiwa,false,
__setup__.partner_2c0c5c7e8d3001d939a7f5f7401b44f9bbf97748,Agosto,,,Blue Bill Park,,81017 CEDEX 9,Albi,false,
__setup__.partner_786f715f2a0f82451df1f6b0d996a33dc06b6763,Wesley,,wmaccrie2j@npr.org,Elka,,691 08,Bořetice,false,base.user_admin
__setup__.partner_d0ff688b80669a07e3c83209f9f3687c1570c891,Jen,,,Steensland,,959-1855,Niitsu-honchō,false,
__setup__.partner_eec47154285fe070cd68968801345575ac1640c1,Dick,,dspadotto2l@163.com,Toban,,1607,Caramay,false,base.user_admin
__setup__.partner_4f2c969791fb00527dc6e4f63545002184c668f2,Oren,+86-169-671-7212,,Mayer,,,Xihe,true,
__setup__.partner_4b45013a17ed6ad4615b6bc29b99d4ec03a8f3b6,Orv,,oshone2n@scientificamerican.com,Di Loreto,,10130,Phra Pradaeng,true,base.user_admin
__setup__.partner_edcac6926c21bdf9185a982a586aca717796f45c,Lucille,,,Gateway,,12020,El Quetzal,true,
__setup__.partner_f136eacf79a09a615147ef240c93f2a4add95b0a,Dewie,,dchesterfield2p@amazonaws.com,Annamark,,,Dahu,false,base.user_admin
__setup__.partner_913b23d5be404d419f5982c469521ad163ce8d00,Micah,+420-968-618-3837,mwasling2q@reddit.com,Algoma,,565 01,Nasavrky,false,base.user_admin
__setup__.partner_7423d8e086face7cdcd3b9bcdc46c47ac6be1dbd,Roseann,+970-583-812-4958,,Orin,,,Kharbathā Banī Ḩārith,false,
__setup__.partner_20adf5f69a0e163314bc1f76bad1a8cdd29dec81,Vinnie,+33-834-968-2937,vmcilwraith2s@hp.com,Nova,,72035 CEDEX 1,Le Mans,true,base.user_admin
__setup__.partner_fed972cff84105385459535e23648460e826a042,Thomasa,+509-980-121-5522,,Russell,,,Port-de-Paix,true,
__setup__.partner_929a6c969ca23f4496ff22ce97df3418f3866fee,Gilemette,,gbroxholme2u@purevolume.com,Holmberg,,55564,Young America,false,base.user_admin
__setup__.partner_347b3e8788314973ceea9260aa2a0faa67cca114,Vicki,,vtithecote2v@joomla.org,Burning Wood,,,Wan’an,false,base.user_admin
__setup__.partner_b9724ec6790c80297acd3e5aebb2e6124017a201,Quinn,+51-594-454-6401,qfreezor2w@imdb.com,South,,,Santa Catalina,true,base.user_admin
__setup__.partner_2fb637af46dc334f604c3150e20fad513daef374,Mari,+86-522-740-2204,,Transport,Road,,Longnan,true,
__setup__.partner_96ee96b6ef2ea5a4e47ffa53afbc0bed65ae1ee8,Heywood,,,Steensland,,4570-013,Balazar,false,
__setup__.partner_075f3cfd5c4e09a1ebf74384c4c9a8ce2b65bab3,Bessy,,bdwyer2z@networkadvertising.org,Burning Wood,,B2G,Antigonish,false,base.user_admin
__setup__.partner_c2c7ffb927df34d664b4f6b13715a120a88b55c7,Godfree,,gbardsley30@whitehouse.gov,Northwestern,,1960,Frederiksberg,false,base.user_admin
__setup__.partner_aa8b0f5bf39a1853b9eda3216afc15b8cdf3f0ec,Selina,,scrouch31@tmall.com,Schlimgen,,,Santa Marta,true,base.user_admin
__setup__.partner_e155d1c22132d5fd14b4816f878bf6e7ecab51aa,Westbrook,,,Oxford,,,La Troncal,true,
__setup__.partner_ababa951e3cb45a872ea81874d92e33454bc273c,Lamond,,lswinn33@xrea.com,Judy,,679 71,Lysice,true,base.user_admin
__setup__.partner_04f4bedd68e0c36952c9eab9167bc2c0ff3c0154,Samuel,+62-175-813-1873,sandrioletti34@a8.net,Boyd,,,Walakeri,true,base.user_admin
__setup__.partner_4c7e6888a3997c759e118bcaba6a234b01efacfb,Tasia,+380-926-324-4588,tmcgaraghan35@un.org,La Follette,,,Borodino,false,base.user_admin
__setup__.partner_52947de8c2a2ff6bb8123ba1d1418b7a2735152b,Caryl,+62-105-963-0015,,Bonner,,,Girang,true,
__setup__.partner_6bf6510bd4a886249c914c130ee710aae9a3c2b9,Hanna,+242-961-702-3715,,Service,,,Kambove,true,
__setup__.partner_548a50005638ff021d150b7050b93123adddab06,Kermy,,,Red Cloud,,,Circa,false,
__setup__.partner_4e5e2a7d5da23187d9bd13e5c128f1c0c061cab0,Deb,,,Mockingbird,Court,635 11,Eskilstuna,true,
__setup__.partner_fcfe7a1f8d5e99c90cf47d4f2a8f643b61f0b7ff,Dwain,+251-344-634-3392,dhillitt3a@goodreads.com,Morningstar,,,Robīt,false,base.user_admin
__setup__.partner_2e16f526c61b788c277f26784a2b6b09a3609a68,Lira,,lstrang3b@reddit.com,Monument,,,Empório,false,base.user_admin
__setup__.partner_2b748efab6f57384b23ae86974bacfa4e7fdb13a,Blinny,+591-484-888-6863,bchipperfield3c@webeden.co.uk,Sunnyside,,,Mapiri,false,base.user_admin
__setup__.partner_0b7f3ead06d11ab1f953ed89cc566a32a4211fa5,Karilynn,,kessel3d@spotify.com,Blue Bill Park,,,Bukavu,false,base.user_admin
__setup__.partner_a7838bb181b330cfc67d87f0d1d70ccbe7ae981e,Lisle,+386-245-602-3997,,Saint Paul,,9201,Puconci,true,
__setup__.partner_5b690f9947e94a2682d90153bf013df8a5ae046e,Iris,,ikitchingman3f@goo.gl,Talisman,,,Kaesŏng,true,base.user_admin
__setup__.partner_392f7d4274c2f8df7f60448ce9070a1aa564a69e,Nevin,+351-605-539-0435,,Talisman,,4620-297,Capela,false,
__setup__.partner_faa5442ff01dff9a3dfefde79253e205766855c0,Clementius,,,Petterle,,,Velyka Lepetykha,false,
__setup__.partner_af6b8a1e1e43e994e3c91083e214e96cb9632ab9,Aurilia,+374-878-990-9657,,Northfield,,,Vardablur,true,
__setup__.partner_83d846a9b34d27a10c3afa43bb5115d080f88258,Gregoire,,gmolloy3j@goo.gl,Shopko,,646830,Novovarshavka,true,base.user_admin
__setup__.partner_bd40d505ed916dde4393741621d1bc5bc0cc28b5,Tito,,,Karstens,,,Yanzhou,false,
__setup__.partner_e9094c0332303065f6a050b1f97d20735e0cb9e5,Ferdinande,+86-307-533-9806,fskule3l@amazonaws.com,Westridge,,,Zhamog,true,base.user_admin
__setup__.partner_5957abf6d102422979c46ef22570833e0f332e5e,Malia,,,Mallory,,,Singabarong,false,
__setup__.partner_4dc7595a8f9d9910de72960d8a567800a90d68f9,Rachelle,,rlude3n@1und1.de,Tony,Junction,92148,La Loma,true,base.user_admin
__setup__.partner_1c033b7dcfd4db53aaf3f2f7ed06d4c05568d2a4,Haroun,,,Steensland,,33147,Miami,true,
__setup__.partner_115a3e203e0e96ac3e892d5fc1942d1f4040f13a,Frankie,,fpleasaunce3p@e-recht24.de,Heath,,8316,Plottier,false,base.user_admin
__setup__.partner_3d18eb986971af4cf1af97b811f817f157196e9d,Bathsheba,,bgeard3q@google.pl,Randy,,,Lalībela,true,base.user_admin
__setup__.partner_43523076db65e176f7c3c40e42d5ad451c94ffcc,Blondy,,bdundredge3r@marketwatch.com,Loftsgordon,,3838,Ulundi,true,base.user_admin
__setup__.partner_e2ae19ec52de29cfa985653c8db8d47882020edf,Preston,+52-651-290-9278,,Waubesa,,54455,Morelos,true,
__setup__.partner_12c2d315338aee02a9d6b2daab596d61f9136b22,Valentine,+86-699-701-0060,vwhisson3t@webmd.com,Hanson,,,Zhenziliang,true,base.user_admin
__setup__.partner_6dfb2e4b64da4faaaac3cd3a259a65ee59173c59,Case,,cdalglish3u@ustream.tv,Luster,,6513,Santa Fe,false,base.user_admin
__setup__.partner_d04a51f3a4f7b5cd7bd2d720ec8bbf5e3ee74c8a,Alwyn,+963-702-207-7495,ashoobridge3v@goo.ne.jp,Cody,,,Douma,false,base.user_admin
__setup__.partner_66bda22c28e4084bc185d4d1df415d073d434922,Georgena,+63-633-114-1921,glinstead3w@netvibes.com,Raven,,9712,East Migpulao,false,base.user_admin
__setup__.partner_90208b3ec56a6341106798ef0394ba2e3c0999a7,Orion,,,Dawn,,,Dongbian,false,
__setup__.partner_85155e2528d47de9ceb9bc2eea6b2f911fda4b62,Audra,+57-933-103-2300,,Sherman,Point,052458,Cáceres,true,
__setup__.partner_2badf9300ad357db01701711c71f7db19dce27be,Fredi,,fdesmond3z@si.edu,Manitowish,,39480-000,Januária,false,base.user_admin
__setup__.partner_630b1b817e35b50ad84b9387f77b1f2cdc45a8cc,York,+62-532-108-1428,,La Follette,,,Karengan,true,
__setup__.partner_173104ff9f97c584ee8ecc340fc32d27eda2c6d3,Nadia,,,Laurel,,,Waimangura,false,
__setup__.partner_dd3e04870f5d600c589cddcad383dcb1805a2545,Tallulah,+31-667-468-6470,,Saint Paul,,2304,Leiden,false,
__setup__.partner_05ad5de4adbe26635ef3a3dd14794e6057e3129f,Illa,+55-426-380-2541,ishermar43@weebly.com,Buhler,,37464-000,Itanhandu,false,base.user_admin
__setup__.partner_42c3d65bf2fb003610298c8ebb33cbf01f122b07,Katharine,,kbastable44@usda.gov,Browning,,,Wangjing,false,base.user_admin
__setup__.partner_930b050e799110f58cdefb0a42d68ea098801a3b,Jaynell,,,Sycamore,,,Xiangzhou,true,
__setup__.partner_6f44e152e82b3088c4ee2417079e55c678c73668,Herta,,,Butternut,Circle,,Heshi,false,
__setup__.partner_2b35e5722dbe6cbcfd8c00fef272b1f36f5b85f9,Dillie,+62-245-346-2817,dbrislan47@gravatar.com,Vera,,,Nifuboko,false,base.user_admin
__setup__.partner_c544e29e400f2c3f642aaaab7b68a1ebd94f672d,Bordie,+86-488-753-2396,,Ryan,,,Luobuqiongzi,true,
__setup__.partner_bae15d1c5d13406942d6bcae322dba586ca6d9fc,Carilyn,,,Spenser,,,Bertoua,false,
__setup__.partner_2077a026588428674a6ef64dad5d90e5206fd2ef,Tobye,+51-663-976-8680,tbuff4a@foxnews.com,Raven,,,Chiara,true,base.user_admin
__setup__.partner_c780f4431263f7ef02b210641ff925171e92930f,Hynda,,,Fulton,,,Nangalimang,false,
__setup__.partner_e451569464eedf7c88b63ac461c27ad6b063001c,Berky,,,Gulseth,,,Tocopilla,true,
__setup__.partner_ee2696c3aa3bb9799d7070a1236351224760b67e,Kimbell,,ktaylo4d@reverbnation.com,Ridge Oak,,4600,Tigpalay,false,base.user_admin
__setup__.partner_73709b5ecc9d11227888b2cfc23c2b195408c6fd,Pietra,+86-269-393-6684,,Springview,,,Jinsha,false,
__setup__.partner_087f83a43522d20af0d833349b139c5911830a87,Kalle,,,Gina,Alley,56528,Adolfo Lopez Mateos,false,
__setup__.partner_26ddb588d05e8957ef54dec79c1e8eeb3bf07125,Margot,+351-155-959-8247,,Pawling,Place,2100-309,Couço,false,
__setup__.partner_6fa6c76b67f4dcd7cea1bbbb5da7eea9dbb8f8b2,Kyle,+234-938-797-9158,kemblow4h@kickstarter.com,Hollow Ridge,,,Orlu,false,base.user_admin
__setup__.partner_bc86e9ca64a2c8e9fcbbb6dfd188ac9195b6a812,Halie,,,Dovetail,,4750-488,Real,true,
__setup__.partner_6b7c5fb3e83858a60ea30f48580e78e2aaf1995d,Wren,,,Killdeer,,,Xipi,false,
__setup__.partner_5a44ced37645190cbb2daae0ee3982d8c3f7d8c6,Dallas,,dpharo4k@bloglines.com,Hayes,,,Kamyshevka Vtoraya,true,base.user_admin
__setup__.partner_7586619731c504a22f1057dc3ff0dea50e8bb6f4,Jacquelin,+48-595-612-0171,,Johnson,,09-410,Płock,true,
__setup__.partner_20b020a47f59d05df55ef2f559ab303b554608f0,Salomi,,,Del Mar,,89204 CEDEX,Avallon,false,
__setup__.partner_2993917ebfca4d328b9dad8d9aad9be49d2e1f2d,Clementina,,chembery4n@live.com,Graedel,,,Texíguat,false,base.user_admin
__setup__.partner_51da62d113a832d90ee1b6b9b0fcf15cb0d23efb,Ginni,,,Wayridge,,,Dabao,true,
__setup__.partner_c857ccd827b2eceddfa9edc19c3feb5ca3ee228b,Griffin,,gkienl4p@uol.com.br,School,Alley,18763,Wilkes Barre,false,base.user_admin
__setup__.partner_f7f7d442b4694022dd6fda3932c8d65f0a87a70b,Peggy,+27-999-451-2387,,Springs,,0159,Diepsloot,true,
__setup__.partner_0d2b48ccc08f7e0654ddf0a7abb6dbc0944165ad,Blake,+232-226-654-7558,bdunton4r@chron.com,Larry,,,Bumpe,true,base.user_admin
__setup__.partner_d77de013fedb186a0d2b96e1b59c606c7d39c9f5,Clemmie,+62-136-526-4612,cmanger4s@e-recht24.de,Mockingbird,,,Utan,false,base.user_admin
__setup__.partner_b9dec54073088875be6e47beb3c7a7c02d7612cf,Hugh,,hcrisp4t@acquirethisname.com,Badeau,,,Zhongxin,false,base.user_admin
__setup__.partner_502c4be7b8d1b56773b03b112823ebd9e182f52f,Alysia,,astenton4u@soundcloud.com,Kedzie,,143814,Tayzhina,true,base.user_admin
__setup__.partner_ce12ae53ea8d859eb5a0ca99f2924f44a4984471,Jerrie,,,Granby,Trail,,Randegan,false,
__setup__.partner_1dd1bde25473f8a3fe4f8e157b377ceb6cce285f,Sammie,,sfries4w@berkeley.edu,Leroy,,,Yunfu,false,base.user_admin
__setup__.partner_6f6d8dff39e1e995fd5186dbb5b95e5fafa75af0,Arther,,,2nd,,,Madingou,true,
__setup__.partner_b42986387a085623438437e68caaa442841f291e,Leroy,+46-156-640-2706,,Birchwood,,265 40,Åstorp,false,
__setup__.partner_f345c381e916453dea5e2f8a57162c2d446d8908,Emmie,,,Grim,,752 61,Uppsala,false,
__setup__.partner_76396920eb1e005556a180dab02eca4add3de2a1,Dewie,+93-978-837-3918,dlarraway50@trellian.com,3rd,,,Bāzārak,false,base.user_admin
__setup__.partner_6f698f104c092daad340d7857e66953dac5f5bc3,Taylor,+7-866-398-7161,ttuffs51@disqus.com,Dorton,,412975,Sennoy,true,base.user_admin
__setup__.partner_4c6fb85aaf4742e580184d547f0f1e2c25a1423a,Erhard,,,Blackbird,,371-0858,Kanekomachi,false,
__setup__.partner_138b77c59a5f0b9ca5240401275e02cf14a644fd,Lion,,,Mcguire,,470017,Santa Marta,true,
__setup__.partner_a5b3ddf45e2282ec66c134633cb015bf076ee0cf,Nevile,,,Victoria,Pass,,Kitui,true,
__setup__.partner_5a06ca30fb4567c01559b102ebf305745b0f429a,Lotte,,lrewcassell55@omniture.com,Little Fleur,,151427,Cubará,true,base.user_admin
__setup__.partner_5b2f1328702e3e2396d903fb83ec6aa73980d5ef,Alvin,+62-966-188-6946,alydiate56@hexun.com,Kenwood,,,Mensalong,false,base.user_admin
__setup__.partner_f0398561672f96dac575d7e2a7635703000e958b,Tierney,,,Drewry,,356537,Svetlograd,false,
__setup__.partner_713dacf31393b0d89c2889fe6c6b098022349f13,Nelle,+1-463-701-2927,ncossar58@naver.com,Pleasure,,E4E,Sussex,false,base.user_admin
__setup__.partner_87b3482edcb77652da4d5a0f2a7db8da68902575,Devonne,+359-877-301-2961,dgiraths59@tripod.com,Spohn,Center,8284,Kiten,true,base.user_admin
__setup__.partner_89cadd01738d6bece6c2674ea20b13addb0e95b8,Cortie,+386-298-699-0286,,Oakridge,,2235,Lenart v Slov. Goricah,true,
__setup__.partner_cd9b14d4a86bea76fceff20db90827363a635f20,Katinka,+63-228-656-9189,,Mockingbird,,2417,Quintong,true,
__setup__.partner_36a1ae6113dcc1598cbd4999487e74a7b69ed4f2,Kiri,+381-874-888-1195,kmallord5c@multiply.com,Corry,,,Smederevo,false,base.user_admin
__setup__.partner_c14f698e36c21c33fa70eebd2fdd20d24e56aaad,Jeddy,,jcoe5d@ask.com,Northport,,,Parapat,false,base.user_admin
__setup__.partner_c10d9944ea55acb54b84003da752fa1090a41e2d,Shaughn,,,Union,,MD-5233,Drochia,false,
__setup__.partner_9bd0032dadd58b7aba553fae59e545fca0219d8d,Ailis,,,Caliangt,,,Talok,true,
__setup__.partner_fd53259f1c1d4f67cb5813978da399f202a78d6e,Felicio,,fsherrett5g@oaic.gov.au,Towne,Parkway,391545,Shilovo,true,base.user_admin
__setup__.partner_9515393f7e16f89f181d26c7c842b409b4add612,Nappie,+381-373-840-8096,nmore5h@imgur.com,Larry,,,Kladovo,false,base.user_admin
__setup__.partner_a951fd3836ca5aed05fab757c837a14d9ee90f19,Gordon,,,Scott,,,Rancapeundey,false,
__setup__.partner_3bcafc2ba76757ad6226abf7ec6e7d1bfd966188,Fawn,+48-479-465-8267,,Hauk,,38-247,Ołpiny,true,
__setup__.partner_93ffb3e8f7ebb50991f1b6b94f1bc7b797b2c571,Land,,,Gerald,,,Chengbei,true,
__setup__.partner_237bb06476ed2fb584c51aaba4e81508eea216ee,Meridel,+34-165-504-1234,marnholdt5l@jigsy.com,Bultman,,07015,Palma De Mallorca,true,base.user_admin
__setup__.partner_97a4b32455700cc0e5510ddf0c5b8b77cd02817b,Ulrica,,,Upham,Trail,,Shangrao,false,
__setup__.partner_0fb613de149d2b9f871f91f8524641008e61cd01,Blanca,+263-399-895-7310,,Myrtle,Way,,Dorowa Mining Lease,true,
__setup__.partner_3c2c3a4c04a586028dcff21d2eeaca56d7afeda4,Susanna,,,Hooker,,,Spas,false,
__setup__.partner_b49968b66051d7ba804b4297b884ec7bfe4ee048,Garrik,,,Holmberg,Road,,Rudong,false,
__setup__.partner_be5770a57b543b7cc13f6c9a95536619cb104d62,Marion,,,Paget,Junction,,Jiazi,false,
__setup__.partner_b95ec7f652fdcbd02d8c9d928ed973e812816c62,Libby,+86-597-322-1049,lbenger5r@npr.org,Havey,,,Xiachengzi,false,base.user_admin
__setup__.partner_74bc2d8bb82fd2d7ddb5c1db093710a3c305a29a,Gillian,+30-558-196-0558,gbaroche5s@ucoz.ru,Pennsylvania,,,Loutrá,true,base.user_admin
__setup__.partner_2456ff2adf6adc2e3bb92affc95809ce6919148c,Mitchel,,,Rockefeller,,,Genteng,false,
__setup__.partner_ad225a45ed9dc27e6d5eb339ccec5bea75e9393a,Chloe,+95-999-910-3041,cgreendale5u@prweb.com,Sachtjen,,,Sittwe,true,base.user_admin
__setup__.partner_bbdff1f359cb1ed89bf832b58c1b9f8498d9fb88,Mina,+48-217-788-6701,mstirton5v@i2i.jp,Autumn Leaf,,33-240,Żabno,true,base.user_admin
__setup__.partner_2398e9be0de9f63686eee3c183e540430c50cb12,Clio,,cgamblin5w@ehow.com,Mesta,,303812,Veshnyaki,false,base.user_admin
__setup__.partner_4d51e96e91a40ccea0ac9abe243d43e104537cc8,Sally,,sobyrne5x@prlog.org,Hintze,,87140-000,Paiçandu,true,base.user_admin
__setup__.partner_a31c8690720e377419194abd84136ce1c21fff23,Mallissa,,,Saint Paul,,,Labansari,false,
__setup__.partner_432669fb46a8c495afdef4e90fcd4844f377623b,Lida,,,Reinke,,,Sempu,false,
__setup__.partner_3423bb473789099512db0b6358d29a5a0490bff7,Sisely,,,Express,Point,,Zhanghuban,true,
__setup__.partner_11fc1633e63f2927618d75f2db13b36a32c61608,Zuzana,,zskaid61@pcworld.com,Vahlen,,460960,Tsementnozavodskiy,true,base.user_admin
__setup__.partner_f3e7358a71ee0603b02527968b5ffa46e2563770,Abigale,+593-137-362-1216,awalthew62@ezinearticles.com,Kensington,Park,,Vinces,false,base.user_admin
__setup__.partner_1eba7afb60d33240823f33e72daed5b2aa1ae3b7,Sasha,+86-768-155-0829,sbestman63@icio.us,Everett,,,Naji,true,base.user_admin
__setup__.partner_c00cc9bdef60d97bb6120e55a0258c28a2606d9a,Lillian,+62-880-978-9403,,Novick,,,Kaduela,true,
__setup__.partner_aa5c8766841949ae0e602b06e9e357106e064a8b,Ailis,,aribbens65@mashable.com,Mccormick,,35701,Vilppula,true,base.user_admin
__setup__.partner_b65ecf60a1356d783eb0a2f699c8960b2f363545,Davidde,,daizikowitz66@berkeley.edu,Ridge Oak,,,Kuandian,true,base.user_admin
__setup__.partner_3e4f5668429acd7ef545dec1c1e0e305381c4656,Doe,+55-721-930-1634,,Comanche,,13660-000,Porto Ferreira,true,
__setup__.partner_b748c4f133d0c460a00c343a21487d776abb6d2e,Nedi,,nchapman68@slate.com,Onsgard,Point,,Zhengyu,true,base.user_admin
__setup__.partner_9e81fe9ce11ca723ddf105099f64066758c65b3f,Marnia,+62-836-345-8119,mstroton69@home.pl,Stoughton,,,Pakel,true,base.user_admin
__setup__.partner_4070699af66210f1462d70e17a687d5c57a1a31d,Agnese,,arobathon6a@dion.ne.jp,Quincy,,665911,Slyudyanka,false,base.user_admin
__setup__.partner_3f58775b262b7953bef92bd1f42864e910d1e9d8,Claiborn,+1-142-890-3612,cglinde6b@bravesites.com,Randy,,11809,Las Matas de Farfán,false,base.user_admin
__setup__.partner_543d34f10f7b2af135c6765cf8018d6fc5221c28,Nisse,+33-127-526-0085,,Kropf,,13343 CEDEX 15,Marseille,false,
__setup__.partner_931b439ac6eacaf449f0997a7800aaef141b404f,Crawford,,ccatterill6d@multiply.com,Sachs,,,Mīrābād,true,base.user_admin
__setup__.partner_a941d13d39a7027ba86e744eb6be8ef733183d44,Gabriell,+33-739-144-0083,gmabone6e@free.fr,Pond,,68020 CEDEX,Colmar,false,base.user_admin
__setup__.partner_f500d25ca5f6d333fd19b04b5bd7fb7bc28f4438,Faun,+383-775-987-9831,fgiacobbo6f@weather.com,Briar Crest,Way,,Dubova (Driloni),false,base.user_admin
__setup__.partner_9eaf87f3b4b88100b7f5abe25534afd2d6f34fb6,Tomaso,+63-487-139-3319,tbarringer6g@va.gov,Sundown,Place,6128,Kibonsod,true,base.user_admin
__setup__.partner_5e7fb8abeed9086035ef84aa422a66cfab10fa9c,Tracey,+351-650-857-4531,,Hansons,Center,7565-017,Alvalade,false,
__setup__.partner_563399dafb124689af1178d1b3b3e96a9106efd9,Andi,+62-633-624-8415,avinker6i@imgur.com,East,,,Paritaman,true,base.user_admin
__setup__.partner_3f4cc92418f1bbf94ccb18c5ef0a047e6a9fa65b,Ermengarde,,,Dahle,,13920-000,Pedreira,false,
__setup__.partner_e992537d9b74d08f93c8767ff4d1d3d0f8542d5c,Lydie,+86-727-841-3521,lpawsey6k@delicious.com,Northland,,,Ketian,false,base.user_admin
__setup__.partner_df09181ed7846a78df209d9c8bd6fd73a2fe523f,Ogden,,,Stephen,,,Huliao,true,
__setup__.partner_c629c3d22496bcbb2649045b2470bcefca54f92d,Eleanor,,,Dapin,,L-9674,Gœsdorf,true,
__setup__.partner_266c17a5fda497e4c7487580ff6847c2e59e8072,Franny,+351-336-479-5947,,Westend,,8970-255,Martinlongo,false,
__setup__.partner_dc4d3cc034d6134e8de1824b64a63d1e397f3ab5,Annabelle,+62-861-414-7036,aswaysland6o@wired.com,Dwight,,,Cisantri,true,base.user_admin
__setup__.partner_5dd8ce6be42233b4e74878022919e9bab1361b41,Cathi,+46-882-182-0885,,Lake View,,826 31,Söderhamn,false,
__setup__.partner_2027106fa5a1656023cf3be32b93e9fa966e35c0,Peadar,,,Delladonna,,691 05,Zaječí,true,
__setup__.partner_edf00291f715391284d1809559d96e9ac149f9d0,Doyle,,,Oakridge,,,Krajan,false,
__setup__.partner_a9ea5d21361e4265d33ef7a63a9e1671f86acbbe,Gregg,+86-684-848-1229,,South,,,Yangdian,true,
__setup__.partner_3fd85a9d6a43a3868a51185837247923095d6442,Wallis,+420-206-973-8354,wcastaner6t@w3.org,Arapahoe,Circle,373 82,Včelná,true,base.user_admin
__setup__.partner_85222a73bb4400640428bffc1dd7df152bcfcad5,Glendon,+62-279-681-9533,,Summerview,,,Wewoloe,false,
__setup__.partner_4f2b82aad8c29b12bbf978a51fa0490db676a22d,Nanny,+1-813-495-5256,,Lyons,Hill,33686,Tampa,true,
__setup__.partner_5902940ebaefd6f4df8d24e50220971329fcd433,Eula,,echarkham6w@omniture.com,Straubel,,188414,Volosovo,true,base.user_admin
__setup__.partner_9a99355b5a2e40022f2e8752c82a455bc02f44fd,Nancey,,,Springs,,,Tucheng,true,
__setup__.partner_c7a15bc177acf23ca446e27bf6080e37e65a169a,Barde,,boutibridge6y@posterous.com,Lakeland,,,Dazi,false,base.user_admin
__setup__.partner_0af617d276c622ed5f8202cd76f12274350085be,Drusie,,djuster6z@live.com,Jay,,,Nahura,true,base.user_admin
__setup__.partner_6ef6abc05df185698d7d21ed63f386de8bd6a785,Herschel,,hgorsse70@state.tx.us,Dapin,,,Sukmoilang,false,base.user_admin
__setup__.partner_931cc2b9f04e48caa82b5c6968b92996c344ff0b,Daniela,+62-888-545-2607,,Florence,,,Gaplokan,false,
__setup__.partner_aef834a7c9c97b65883587356e175f36ba50aea4,Frannie,,,Dixon,,236 41,Höllviken,false,
__setup__.partner_fad71a1cda6a80814e5d4ccec202338be478d688,Waylen,,wconochie73@bbb.org,Summer Ridge,,197758,Sertolovo,true,base.user_admin
__setup__.partner_e93517d12674a99d43afd02f26ce3e53b79dc4d3,Jammie,+55-574-302-5648,,Sommers,,49580-000,Areia Branca,true,
__setup__.partner_828f2517a1def3e7d5c60e73c1b76906a2ab45fe,Katine,+86-585-636-2620,kstanlick75@apple.com,Troy,,,Erqu,false,base.user_admin
__setup__.partner_ba48a4a1e05f54ca06d9a71ae20c3f21727485dd,Leontine,+380-989-896-4253,lmurty76@nsw.gov.au,Grim,,,Zarya,false,base.user_admin
__setup__.partner_0a912cafb50ca397f7215805e5c274c61bc1c864,Bradford,+86-454-114-8992,,Lighthouse Bay,Hill,,Nanpu,false,
__setup__.partner_333e1475c500365a20b3597e3321ff32499efbf9,Christyna,,csyversen78@blogger.com,Boyd,,1114,Lucapon,true,base.user_admin
__setup__.partner_0f709df5cba41ea304ee3e627e9712eb52b5a0a4,Galen,,,Trailsway,,,Tayāsīr,true,
__setup__.partner_4e91d143b2537acf618bfd4c3beedf13dd7836b5,Eben,,emcmullen7a@marketwatch.com,Bultman,,5030-049,Barreiro,true,base.user_admin
__setup__.partner_0c41fb87ae3c119f7a1be25069a68e9adca70227,Rod,,rmallord7b@webs.com,Hagan,,58353,Ojo de Agua,false,base.user_admin
__setup__.partner_7df9f8bd2f0fdb1afd6e44ac41389acaf4d2b864,Alejandro,,,Atwood,,,Gaide,true,
__setup__.partner_c173807feaa0e7adbb57dd70654c4f1364de1eef,Annabel,,,Oriole,,,Jincheng,true,
__setup__.partner_e09d7d6cc96ca08ff80e9603863e64b1e6382840,Fionnula,+52-429-847-2645,,Meadow Ridge,,29783,Francisco Sarabia,false,
__setup__.partner_04bb1f09029bd6e02a0dfe5cead6545aa23d5a03,Paquito,,,Hauk,,39990-000,Águas Vermelhas,false,
__setup__.partner_5beb61876b5cbc96782b20d1d6c60f3867e22f94,Emanuele,,,Starling,Pass,,Dizangué,false,
__setup__.partner_2021d2e9d3c863413e833226859b8971b9a1d4f6,Dode,,dlikly7h@delicious.com,Fair Oaks,,,Huibu,false,base.user_admin
__setup__.partner_d6644b1679a9084be21640751ec11943ee585c63,Babbie,,,Brentwood,,,Manisi,true,
__setup__.partner_4d8f12c52b555279d5d43e1f250775eb5790a5db,Sydney,,,Prairieview,,94101,Kunri,true,
__setup__.partner_c1ec202d73ff3f55fdb93a4ecf2832d6a8fd88da,Giraud,+962-519-163-2992,,Petterle,,,Aqaba,false,
__setup__.partner_5bda8a5c280252685d7103b99f2c40b7d6adb36a,Marisa,+52-547-251-0474,mmcchruiter7l@ustream.tv,Nova,,36780,Los Pinos,true,base.user_admin
__setup__.partner_e1c9c8f7ec4efc8f05d6c57292fb1017f12c2ebc,Scott,,stestin7m@weebly.com,Waywood,,1103,Dualing,false,base.user_admin
__setup__.partner_910d94bcc8d6b4ec460986897f6a7fdeb94519f6,Iseabal,+84-516-880-1138,iwinscomb7n@youtu.be,Di Loreto,,,Thị Trấn Bắc Yên,false,base.user_admin
__setup__.partner_ba82bb6ad2b7bcb4a8f72872824ed51a9fd2a546,Clareta,+46-766-233-1657,,Esch,Junction,781 81,Borlänge,false,
__setup__.partner_dcf6c7787af7ef5b849c93ca255b3c9665e0125c,Heath,,,Pond,,,Huolianpo,true,
__setup__.partner_044f8eb31929e75eb8d045fc1e0851784ea153f1,Marillin,,mschapero7q@posterous.com,Knutson,Pass,,Ma’an,false,base.user_admin
__setup__.partner_cc3bf888da7ba5a758e7af402a1992ec7bac7313,Eda,+84-478-628-7372,,Utah,,,Tô Hạp,true,
__setup__.partner_9aeea3f1fec07e59fd5f904e083a260181a20c8e,Merrilee,,mscrange7s@wordpress.org,Graceland,,1047,Марино,true,base.user_admin
__setup__.partner_39ba9b2f8824367b8976acb98479215224ebd558,Brig,,bfairy7t@scientificamerican.com,Superior,,,Calimete,false,base.user_admin
__setup__.partner_4c46655a9a2cc98edfabf3a98d9e98f81a6cc1a6,Nolana,+62-790-478-6127,ndigg7u@slideshare.net,Mcguire,Place,,Krajan Jamprong,true,base.user_admin
__setup__.partner_743e4767affabfa8c3f6e9188347d46683eeda75,Arman,,,Dovetail,,,Tempaling,true,
__setup__.partner_0b362ce48655b7959ea93f9fc104d3a6858971d9,Jacky,,,Crescent Oaks,,,Goz Béïda,true,
__setup__.partner_28e0f4ad5b9fd81e087a833602cf726455330423,Crosby,+62-812-424-7770,,Farmco,,,Sambogunung,false,
__setup__.partner_fb82a38843e95610c26907526d275419629de573,Aaron,+51-546-944-4120,aanespie7y@t-online.de,Upham,,,Tumbes,true,base.user_admin
__setup__.partner_da32e8ea609e2751900f7746263d2cd62bc2303d,Gay,,,Michigan,,,Mandikbatu,false,
__setup__.partner_06ad979872b40049e8ea224df1cd5cf85292a128,Rustin,,,Merry,Hill,,Pingpu,true,
__setup__.partner_3107e01919a8155776a47b4c52cabb8a8634a510,Gearard,+48-141-136-4659,gwooldridge81@google.nl,Karstens,,15-134,Ursynów,true,base.user_admin
__setup__.partner_d32c04483c24520cc257f8abae5085be3beb9b78,Iolande,+385-701-704-3637,,Brickson Park,,53231,Jezerce,false,
__setup__.partner_c3d12944d613abe462abb41e2eedc30947fb8f8f,Jacquelin,+81-953-109-4669,,Gina,,491-0014,Mutsu,false,
__setup__.partner_cdf0eb03b17343d8de584956f4dec386d272a2b8,Stephani,+55-880-362-4990,swilliment84@bravesites.com,Killdeer,,28900-000,Cabo Frio,true,base.user_admin
__setup__.partner_48062c5c0563139d1ddd261a1585e03a8bd9f186,Kippar,,kjermy85@epa.gov,Coolidge,,,Nanfeng,false,base.user_admin
__setup__.partner_0c04853d21232bae1504eb851d01b5fd630a7797,Jaimie,+387-122-459-8541,jhillum86@discovery.com,Cardinal,Street,,Brka,true,base.user_admin
__setup__.partner_2976755b8798cfa7f705ef163b4268a1ad360b33,Antons,+63-156-785-6896,,8th,,3322,Estacion,true,
__setup__.partner_ba8fd1972ae5bf99933f1987c7935b48690e4192,Wendel,,,David,,93429,El Mirador,false,
__setup__.partner_ae410e86ea2a6743439736260932bd2476a24635,Ilsa,+81-862-612-2692,icropper89@forbes.com,Cody,,981-0503,Yamoto,true,base.user_admin
__setup__.partner_46250f7bfddd4980378f609842203653945a00c1,Keven,+62-202-295-1149,kdawidowicz8a@army.mil,Dovetail,,,Sukamaju,false,base.user_admin
__setup__.partner_354737d10285c4c3ccf0b7d4c5b397a80f54fe2b,Brand,,,Bluestem,,,Krasnotorka,true,
__setup__.partner_679cd5dc4c706ab5780f612eeb39d3e27af9439e,Terza,,tgaddas8c@ebay.com,Stone Corner,,8301,San Miguel,true,base.user_admin
__setup__.partner_55c73332b7f75ef0e715a9adf7e95855bff9aabe,Purcell,,pdampney8d@cbslocal.com,Vidon,,,Franceville,false,base.user_admin
__setup__.partner_9d1f36198f54a2671b8968783c249bff6e746e57,Gwendolen,+7-296-761-3246,,Dovetail,,612040,Svecha,true,
__setup__.partner_cc5346ae66d3d141b73c189792140bc44d3bbdaa,Trisha,,,Meadow Valley,,9017,Pellegrini,false,
__setup__.partner_0793e9c45ea3729c19c9b8ecae5b04297f4fdbd9,Frederic,,,Portage,,48258,Detroit,false,
__setup__.partner_fb72978ec5f42785b0aacd2b47162c3e4d5d43e0,Matthiew,,,Spohn,,869-0502,Matsubase,false,
__setup__.partner_e9de0117ecdc15f947a4725c48d64650964a1fe0,Ninetta,+46-145-157-7491,nmusla8i@wikimedia.org,Vidon,,694 24,Hallsberg,true,base.user_admin
__setup__.partner_2ae033adf53126d0e719b50a6504553dd00c5ea6,Packston,,predhouse8j@t-online.de,Reindahl,Hill,,Mākū,true,base.user_admin
__setup__.partner_cb05774460e3f1277d0d685c73e54955f7c1dffc,Filberte,,fhutchason8k@addtoany.com,Warbler,,,Qiaoshi,false,base.user_admin
__setup__.partner_d911892c78732171ea7ae73b25f12f004c3d4422,Uriel,,,Drewry,Lane,2505,Quinipot,false,
__setup__.partner_732801781de0f5a7b6a298b1a275db9234ffd53e,Ursuline,,,Golf Course,,90220,Narathiwat,false,
__setup__.partner_ca58841883cb78317a307c8166b4ea460ba08a56,Crosby,+420-468-868-7824,cmeasham8n@instagram.com,Loeprich,Plaza,696 81,Bzenec,false,base.user_admin
__setup__.partner_ef021959487ce3b047ee2216a3457625bc3f5366,Kirby,+7-348-648-5744,,Grasskamp,,301233,Krapivna,false,
__setup__.partner_71b38ff096bcf08e571d71d1733792140d3f4e68,Dario,,dduxfield8p@columbia.edu,Mallory,,,Bunisari,false,base.user_admin
__setup__.partner_8323403d2c503bbe6c22822fb091892027b91f7f,Tallia,+81-410-299-7884,tsangra8q@infoseek.co.jp,Hayes,Parkway,873-0001,Kitsuki,false,base.user_admin
__setup__.partner_5897f5e48a1419111e4592ed14a199da7abf4d32,Wallis,,,Raven,,,Rantaupanjangkiri,false,
__setup__.partner_cc047d0872b91db7a7270149d526e1ac13dae5b6,Sharon,+359-179-267-2124,,Crescent Oaks,,2287,Svoge,false,
__setup__.partner_1b23d789fbaec27f3ceaaf2552fd8fcb4ccecfb1,Hartwell,,heliyahu8t@webmd.com,Fordem,,,Bucheon-si,true,base.user_admin
__setup__.partner_62e5fe6e77a336f8becb440acc997d5725f50386,Tessy,,tlillee8u@sakura.ne.jp,Melby,,85600-000,Francisco Beltrão,false,base.user_admin
__setup__.partner_d7eb8f5cf178fab113ab4edad65556891659d5bf,Daveen,,,Sullivan,,,Al Qurayshīyah,false,
__setup__.partner_703a3b8d538662a751e595e495dc03c402f378d6,Pavel,+62-556-748-3015,,Debra,Court,,Fatumuti,false,
__setup__.partner_5f6201a1e79e853b99f1c7c7ba1f661d695ec4eb,Lucinda,,lflaonier8x@printfriendly.com,Golf Course,,252257,Granada,true,base.user_admin
__setup__.partner_448348e655216f4e2c0a20013aa69fcc02f778fc,Batsheva,,bharradence8y@eepurl.com,Acker,,,Tawun,false,base.user_admin
__setup__.partner_f52baa28e6fe01d18c6c00d15a9b459e16225c2e,Lloyd,+994-654-222-7429,lgoodhay8z@huffingtonpost.com,Buena Vista,Hill,,Ramana,true,base.user_admin
__setup__.partner_2b460343fac748f4ccbe958de3f4516b3da9f75d,Sharon,,slightbowne90@wordpress.com,Sachtjen,,95818,Sacramento,false,base.user_admin
__setup__.partner_bd8d5152de16b1cec003af3161d43477f89f55aa,Albert,,,Golf Course,,4110,Malainen Luma,true,
__setup__.partner_da1eefb70a7bb245c2724d6c81c21393ae9a91d6,Clea,+62-806-760-9111,,Golf View,,,Trucuk,true,
__setup__.partner_343352ad8bd6a5a25984b103e35f7c453bfaf456,Danella,+86-136-400-4892,dgippes93@sciencedirect.com,Everett,,,Xijiang,true,base.user_admin
__setup__.partner_64005d6b5f4f063ba9b4e824c6c47e54f4eb1ac2,Natty,,nneeves94@upenn.edu,Westend,,10135,Concepción de La Vega,false,base.user_admin
__setup__.partner_e1be223d35830fac77680ef697d3c04287704e9a,Nickolaus,,,Dawn,,,Hongmiao,false,
__setup__.partner_4ffcf89d8dcaad2f89c97487bf7d3965b758ffc4,Donna,+1-268-468-5565,,Fallview,,10902,San Francisco de Macorís,true,
__setup__.partner_6340a38a189e2d6e3287a505f8ef94cd64f7381d,Claude,,,Granby,Park,48280-000,Mata de São João,true,
__setup__.partner_597fce46769fe6f5b316e5a6724b67696b16faef,Willard,,,Summit,,3720-029,Póvoa,false,
__setup__.partner_04b09523910702b43eae5e7fe6e53284e267d941,Krystle,,,Erie,,,Linfen,false,
__setup__.partner_cd8cbb200601e4e1f7fdf2f183444ac00a542490,Sephira,,,Sunbrook,,,Zhangjiawo,false,
__setup__.partner_012ee5344f4a2aaf56f9d2877d58176050207b54,Verene,+86-909-617-5425,vgammie9b@biblegateway.com,Hovde,,,Longquan,false,base.user_admin
__setup__.partner_29a1659b1be90a9d8bf8b62e5a83f256ef2e59f8,Cristie,,,Kropf,,,Luoxi,false,
__setup__.partner_01e50ae7e46b96a7020660d3e21be8d3ba24e143,Leontine,+976-491-302-5572,lbartol9d@wix.com,Crownhardt,,,Bayan-Ovoo,false,base.user_admin
__setup__.partner_67633a675b5dcc0ae25e7fba37f49c5b7dbf2178,Lizette,+20-624-745-5333,lpickrill9e@msu.edu,Mccormick,,,Mashtūl as Sūq,false,base.user_admin
__setup__.partner_1de80e2319552496bc0cfea371af33e776577006,Holly,,,Corscot,,,Lisakovsk,false,
__setup__.partner_df59391e2af2d53eb7847f129a3155910a7d90da,Ariana,,alonsbrough9g@webeden.co.uk,Fulton,,,Corail,false,base.user_admin
__setup__.partner_22d446d79e52d7059aae74002ca2807284493045,Viviyan,,,Aberg,,93300-000,Novo Hamburgo,false,
__setup__.partner_7bd8814c12b4f0a13622999e6d381ad5cfd55f73,Ingmar,+58-990-322-9267,,Center,,,Anaco,true,
__setup__.partner_c45d2f842355784ac980c2dab0e144353762b104,Logan,,lsiuda9j@mtv.com,Susan,,,Puyehue,false,base.user_admin
__setup__.partner_7b0602e7748005a4ba227937d812f27e42cdcdf4,Nonnah,,nackrill9k@sina.com.cn,Kennedy,,,Kadupinang,true,base.user_admin
__setup__.partner_c36f94e67951baffd65063f5b6a7864854579837,Laural,+64-148-790-3959,lbenit9l@dot.gov,Farragut,Circle,2245,Takanini,false,base.user_admin
__setup__.partner_fdcbb7d4bb46faed2a43081ac8c866b623793c4d,Ingemar,+55-443-628-1330,idevlin9m@cbc.ca,Truax,,35450-000,Itabirito,true,base.user_admin
__setup__.partner_5c5f0214c2de4c1d913f1ed3824dd0f8babe6057,Monti,,,Holy Cross,,F23,Aghada,false,
__setup__.partner_d75572ac754bdab59b5da7535172ff359caf052e,Bruis,+41-792-809-8918,,Superior,,4055,Basel,true,
__setup__.partner_010edc48a11cae2bacbcb1923c2347e984c1d98b,Kin,,kleethem9p@ox.ac.uk,Buena Vista,,2300,Tarlac City,false,base.user_admin
__setup__.partner_4c4b27287d4e570938336e6993fee6dc8187b91c,Benita,+692-779-125-6140,,Eastwood,Plaza,96960,Likiep,false,
__setup__.partner_dc510f70c7a3d54181a8ac01b3fa9226ca81fd84,Ennis,+63-509-113-6148,edemare9r@cpanel.net,Main,,8513,Esperanza,true,base.user_admin
__setup__.partner_5cd97effcffb7f6c1d94f4b9db3a4cc68afe5776,Porty,,,Cascade,,93584 CEDEX,Saint-Ouen,false,
__setup__.partner_2d7a2b0b271ccb81866a839398a71e8e3bcde03a,Tamarah,,tbaudasso9t@va.gov,Dorton,,,Rosario de Mora,false,base.user_admin
__setup__.partner_0a75f09b7431138dcdcbb1f4f89fa8cc42500312,Koralle,,klangstone9u@google.it,Loeprich,,62530,Putrajaya,false,base.user_admin
__setup__.partner_e158c6e83d5b583dda31636488f398598d69d8bf,Emylee,,,Hoard,,,Koumra,true,
__setup__.partner_0a9bc589995bc9829e693ba6f38d8e73d31ae5be,Karine,,kpretty9w@creativecommons.org,Hermina,,92892 CEDEX 9,Nanterre,false,base.user_admin
__setup__.partner_e9196f4f1ab5ead58fdc45f04dadbf1201f35671,Vic,,vosichev9x@google.nl,Crescent Oaks,,361606,Bylym,false,base.user_admin
__setup__.partner_7eb4f102c7461f763c71464eec6b10177e1d533a,Chicky,+7-235-676-5704,,Graedel,Hill,,Zhangatas,true,
__setup__.partner_95fffc6d7c0b0ebdb56a560dc63539f991f37021,Zaneta,,zlemonnier9z@springer.com,Forest Dale,Park,,Qutqashen,true,base.user_admin
__setup__.partner_11859ec86f7e7d8642f3f81ac436a72ea65657d1,Cassie,+598-467-665-0252,cwardleya0@yelp.com,Bunker Hill,,,Fray Bentos,false,base.user_admin
__setup__.partner_e8e5e738f56bca56d61edd52c6853db9e285d3b2,Chaddy,+27-934-634-6583,cmaleka1@w3.org,Lotheville,,8284,Port Nolloth,true,base.user_admin
__setup__.partner_653021f6760aa140112bc39cb41137da3c1f745b,Archibaldo,+44-327-692-7231,,Tennyson,,BS37,Horton,true,
__setup__.partner_19a1f6385f74006226b90c87cb0f151e937b4fe4,Mala,,mblancheta3@goodreads.com,Independence,Parkway,,Junbu,true,base.user_admin
__setup__.partner_d844d458f7bf273f4e81f3322cd8a98c316edabc,Laurens,,,Maryland,,,Lýkeio,false,
__setup__.partner_bb54d26840213f0e606f073e07ab9dd18a8f7821,Lianna,,lhablota5@ftc.gov,Walton,,34-436,Maniowy,true,base.user_admin
__setup__.partner_e95224500428a65c605cd43414bad845e2205d8e,Tommy,,,Crescent Oaks,,357433,Inozemtsevo,false,
__setup__.partner_d555a095e1dd4af3bc26c740c234fbe215d19df3,Tanhya,,tbeynkna7@vimeo.com,Ridgeview,Junction,,Iradan,true,base.user_admin
__setup__.partner_8e1986053cfce308ad9426509c5c18ad07a57e6c,Swen,,splascotta8@studiopress.com,American,,,Yongding,false,base.user_admin
__setup__.partner_4557d73ab02cc7eaef3763e2c71bc3f773cbc2b0,Amble,,,Corben,,,Kapshagay,true,
__setup__.partner_bdd400bb01114c4d28d7c6562879f70417dffa4c,Danya,,dsterrickaa@nsw.gov.au,Montana,Circle,603,Akureyri,true,base.user_admin
__setup__.partner_8178171208b44fe7e5e1cc78bab5024893cab2bc,Butch,,bpolkab@cam.ac.uk,Loomis,,768 02,Zdounky,false,base.user_admin
__setup__.partner_7819de4a2fb96809be72998e241d9c5cced4dfa7,Rudiger,,rcopperac@marriott.com,Mandrake,,,Angan,true,base.user_admin
__setup__.partner_8da87ae557da3463048042150eeca189709df82c,Candra,,colearyad@techcrunch.com,Atwood,,646604,Inya,false,base.user_admin
__setup__.partner_adff91e2f494a252550d31538c90d7d40a0646fa,Hildegaard,,houbridgeae@bizjournals.com,Old Shore,,,Adamstown,true,base.user_admin
__setup__.partner_956f2827629ae25b0e8560cf33d0a8eb7cfda590,Otto,,obonafacinoaf@wiley.com,Arizona,Parkway,520518,Buesaco,true,base.user_admin
__setup__.partner_c8aad9f3d3d4ffd7199627a275e5f481f043771f,Shalne,+48-928-127-6054,,Nelson,,18-301,Zambrów,false,
__setup__.partner_65a2dfbab2e9527fe3dea851d9f3e5f12feb77be,Karleen,,,Blaine,,75884 CEDEX 18,Paris 18,false,
__setup__.partner_e2f427bb8539754ea99c15fbed217d05e4894d16,Nichols,,nerwinai@wp.com,Kennedy,,,Mentougou,false,base.user_admin
__setup__.partner_a3f58b0c0de0d814fde25b48c7a4bb4194a40fbf,Lonee,,llynthalaj@oaic.gov.au,Hoepker,Alley,,Dongmazar,true,base.user_admin
__setup__.partner_a9242bf65ad9794f10c778d870016239d0b442ac,Tamarah,+1-707-226-0235,tfeeak@t-online.de,Del Sol,Street,10134,El Puerto,true,base.user_admin
__setup__.partner_85de46f8a66052efad53cc0921178f632bd8cfa2,Wilma,,wonyonal@geocities.com,Butterfield,,57045 CEDEX 01,Metz,false,base.user_admin
__setup__.partner_c47e293c74efff44d92cc5ee1806e720313714e9,Wileen,+63-932-311-1926,wfierroam@last.fm,Hansons,,7402,Pandakan,true,base.user_admin
__setup__.partner_45f56497743686cda129baa2c23e1f7c531beb83,Zeke,,,Haas,,,Yanqi,false,
__setup__.partner_f222a8fb6d8d6aaa32fd8d4891264602cd15b070,Raffaello,,raxfordao@cam.ac.uk,Montana,,64-980,Trzcianka,false,base.user_admin
__setup__.partner_0fd9d1d329766a36d740e02729616887acdae78d,Catha,+36-578-414-8742,,Mallard,Trail,4404,Nyíregyháza,false,
__setup__.partner_2502fa4bc60cd7e01999c907dafc24738e3578b2,Monti,+62-235-730-8858,margonttaq@ezinearticles.com,Little Fleur,,,Muraloka,true,base.user_admin
__setup__.partner_94d52541438be6dd9031c72a660ff9e9aa4f2341,Nels,+86-910-491-4996,,Esch,,,Anle,false,
__setup__.partner_f7bda8841145a62267e17320534ab3e41be787dd,Siffre,,slunbechas@va.gov,Mitchell,,,Camiri,false,base.user_admin
__setup__.partner_13fcbacf9041bf57fc78b96f0840958cd1509af8,Fowler,,fclucasat@alibaba.com,South,,242315,Lokot’,false,base.user_admin
__setup__.partner_6de1e188367c740f1e1e3c651f9a3b823672136e,Agace,+880-219-606-4126,agoodouneau@huffingtonpost.com,Fisk,,7460,Manikchari,true,base.user_admin
__setup__.partner_9abdc59d73df2ec1687d8c0e985d79a1e44cea82,Irena,,ifeldhammerav@mtv.com,Garrison,,13230,Salaya,false,base.user_admin
__setup__.partner_363441ddd7a37a6d8d0996ecfc77437742f85326,Crysta,+371-967-928-3293,cwillersaw@cargocollective.com,Thompson,,,Varakļāni,false,base.user_admin
__setup__.partner_6cf0de32532bfa0ee8552f9c4fa9fde99c18a705,Wain,+86-722-889-2842,wrodgmanax@ustream.tv,Forest Run,Way,,Xiangyangpu,false,base.user_admin
__setup__.partner_9e0133ed1440e42898d91dda30b1c2b12586bf6a,Brien,+63-980-195-1314,bthatcheray@unblog.fr,Saint Paul,,3102,Nugas,true,base.user_admin
__setup__.partner_40dc81ef0cc17291636e3e2fb0b2c0d15b57b2e2,Rorie,,,Grayhawk,,,Bonabéri,false,
__setup__.partner_57e369dc16044440320e86248187ab9e84a2b97e,Valentin,,,Corscot,,,Tiouli,false,
__setup__.partner_8d1042dad344c4bcbea3f7b0efa5806a2d5da457,Florentia,,fmoffatb1@hatena.ne.jp,Drewry,,75884 CEDEX 18,Paris 18,false,base.user_admin
__setup__.partner_7d05630b55847235a5cfce68b6a1a19f8ed22fa2,Maribelle,,,Corscot,,,Xiaojiezi,false,
__setup__.partner_a50bd830ba8b60c19bc7e8843da8780c917b2068,Corine,,,Village Green,,9928,Bloemfontein,false,
__setup__.partner_c57fed159bca1510528e2f4f659635d2ffde8497,Dale,,dwyllcocksb4@blogspot.com,Dryden,,959-2013,Suibara,true,base.user_admin
__setup__.partner_2b6ff453f53e72bcc0caa13c559378aa667ae595,Filippo,,fconnellyb5@purevolume.com,Maple,Place,,Saga,false,base.user_admin
__setup__.partner_8ba5d3445dcf6bb73157a3c1ff74241d7d657f67,Rafe,,,Nova,,5430-236,Santa Valha,false,
__setup__.partner_e39739c26751ff8f8b051e1c98deb7d12c57f014,Trista,+48-495-447-7176,tmilbornb7@cafepress.com,Utah,,36-047,Lutoryż,true,base.user_admin
__setup__.partner_53a0d752276cb583896f960285e892533203439f,Gertrudis,,,Ronald Regan,Pass,,Houzhai,true,
__setup__.partner_a73da953917d5e5cc846d6f2eb40f29f464a019a,Ashton,,,Bobwhite,,4805-178,Donim,false,
__setup__.partner_da229864a9c077f89eb71c1c96b8ece0956ec83a,Harrie,,hseebertba@blinklist.com,New Castle,,,Tarrafal,false,base.user_admin
__setup__.partner_00ea6e22ff032da3d2bfff2763bffe233a0b2da8,Elwyn,,esteinerbb@dailymotion.com,Pierstorff,Alley,06008,Chiquimulilla,true,base.user_admin
__setup__.partner_436910fcf1c162038b7914a377a915ddb6946bea,Jacintha,,,Tennyson,,394080,Krasnolesnyy,false,
__setup__.partner_c6b1691b1aab3c5741db6d655f499470d56f7d09,Thain,,,Mallory,Street,,Vanadzor,false,
__setup__.partner_b757f69cdc73456800d77e37850854c10c9d2c2a,Leonora,,lwhaphambe@vk.com,Green Ridge,,25390,Kiikala,true,base.user_admin
__setup__.partner_7a62773c6cce659167b688e98b543d34144af6b5,Kore,,,Bobwhite,,140732,Roshal’,true,
__setup__.partner_40ac30403ab8a5673e63b7bcdb356ec5d7203b27,Bette,,bkellewaybg@time.com,Rockefeller,,,Runjin,false,base.user_admin
__setup__.partner_3f7991d5f8fb1ddb4889e230165bf3265f2025aa,Andrey,+1-917-860-9258,avernebh@multiply.com,Randy,Junction,10459,Bronx,true,base.user_admin
__setup__.partner_a6a93a230694bedb14ba500940b966d6c14edbb2,Brigitte,,,Del Mar,Way,,Tembladera,false,
__setup__.partner_c8de9fac2e820695edd8db4705a39af470d47e33,Fanya,+27-421-542-2763,,Wayridge,,2980,Utrecht,false,
__setup__.partner_40435f34b76d5eeb54599d0311dcb8e5c5b6dc59,Janette,+371-990-926-2909,,Miller,,,Aizkraukle,true,
__setup__.partner_1b3eaf2828112ab31afdf071b87260f350b06c3d,Alf,,akirsteinbl@discuz.net,Dryden,,,Abdurahmoni Jomí,true,base.user_admin
__setup__.partner_375e3f16e3b86e4ef06848fd59da26a2efbb0ef4,Brennen,,bmoscobm@nbcnews.com,Red Cloud,,,Kibingo,false,base.user_admin
__setup__.partner_02676e911373c1c433ede222b23306494c84b90a,Darrick,+63-564-616-2668,dremnantbn@aboutads.info,Ramsey,,4612,Malasugui,false,base.user_admin
__setup__.partner_3c05bcf26bcc30d52f62c7f4fc08c8423609be56,Rab,,,Dixon,,,Lianfa,true,
__setup__.partner_9a5a132e7e66ea6a97238de76542619a644e448c,Mei,+86-436-833-6238,mbunyardbp@bloomberg.com,Susan,,,Jiujiang,false,base.user_admin
__setup__.partner_6e435a7abdf8e3549a4265f11ae24612b58be81a,Em,,epestridgebq@google.de,Nova,,94150,Yaring,false,base.user_admin
__setup__.partner_0aab80dde940c30d3ba33056f863dc96553bcca7,Devland,+66-359-649-6646,,6th,,42130,Wang Saphung,true,
__setup__.partner_c1a9e415a120dab49d514aa44d569fbab5ff7920,Erda,,eberthomierbs@i2i.jp,Shelley,,3200,Pancol,true,base.user_admin
__setup__.partner_8ca1140ce633caa22bab9826bb564571d725a522,Gisella,,gsantinobt@people.com.cn,Barnett,,,Sanjian,false,base.user_admin
__setup__.partner_4948c6d7e9bc392559ba643591d25851501b027e,Vladamir,+51-268-318-4534,,Hauk,,,Máncora,false,
__setup__.partner_af977916f3a8eea46bce9add4a338813154e18b0,Piper,+62-415-152-3221,pdarnboroughbv@blogtalkradio.com,Fuller,,,Tambaksumur,false,base.user_admin
__setup__.partner_e063d17cda6b5a20eb20a069297c23b9e8fd61e0,Tabitha,+62-513-401-4937,tgrahambw@altervista.org,Shasta,Alley,,Sindangkopo,false,base.user_admin
__setup__.partner_604cf48c29cac671c576b6cbfa5ff16e5b0bf552,Star,,skitcatbx@uiuc.edu,Morningstar,,,Xinmin,true,base.user_admin
__setup__.partner_53910f617cdf83276fc468e0ee48fd10378c582a,Zebedee,,zmollindiniaby@princeton.edu,Linden,Hill,07400-000,Arujá,false,base.user_admin
__setup__.partner_aa6e78a91d0be3fc2ada2b6fcf15af9975abc257,Sue,+1-419-943-7090,,Eagan,,45020,Hamilton,false,
__setup__.partner_54ef12b984d1aefaeff8207fa165480d2bda895b,Natale,+46-875-910-2317,,Northfield,Park,103 16,Stockholm,false,
__setup__.partner_a0d1c41a54f1c590f9c06eaa77524e550f4e61f3,Osmund,,,Carioca,,961 19,Boden,true,
__setup__.partner_87160c645ae452eff1df2cc326ed066137484f07,Blinnie,,,Clemons,Point,5291,Bilje,false,
__setup__.partner_cf367243c2bcbb0352896a66a88bf729caf70224,Evered,,,Grasskamp,,,Turbiv,true,
__setup__.partner_6c51feed40288b5b366b734373e6c610fe85f88e,Leo,,,Almo,,,Shuqiao,false,
__setup__.partner_6ece1976e8c3d60eb8075863b4954be80370352f,Arni,,,Leroy,,143 42,Vårby,true,
__setup__.partner_ffc7c46e78e030e612c80e8175dae5369eee0159,Lowrance,+380-443-436-7985,,Larry,,,Pokotylivka,true,
__setup__.partner_214d42bcbc2f132499b925ba333912d4c2cf5024,Hildegaard,,,1st,,,Pozuzo,true,
__setup__.partner_3a9f2d045bf1a76ac13ff80877113dcfc824986a,Felipa,+33-154-625-5193,,Anhalt,,33080 CEDEX,Bordeaux,false,
__setup__.partner_9e328d530529eeeb5ad9f30218e1d7eec5ab6518,Dirk,,,Dexter,,,Jayyūs,true,
__setup__.partner_1d74337937bb64fd901520e320f9db371365ef6a,Terrence,,,Hooker,,,Fond du Sac,false,
__setup__.partner_3eafff9f3c6820c8da0d2cff27830e763e24d315,Alexina,,,Carioca,,2445,Tres Arroyos,false,
__setup__.partner_b18a734236d6933d431afb13fed191856a4d11c3,Ulrike,,,Lotheville,,,Batsari,false,
__setup__.partner_29ed7886eda055c8497b75a620f2054f8e427b5a,Wittie,,,Luster,,,Niopanda,true,
__setup__.partner_6d77c5fe507425615f7b5620eae30fb29e5c7a30,Myles,+62-545-744-1584,myepiskovce@twitter.com,Anhalt,,,Oekuu,true,base.user_admin
__setup__.partner_06ae03975ddda15b4c6c5d1b9e37129333dcd405,Emmalynne,,edittycf@hp.com,Mesta,Plaza,6215,Laiya,false,base.user_admin
__setup__.partner_991ffb54b8d742b44cba67985b499a9737ca0df0,Emmalee,+81-500-595-6509,eclemcg@joomla.org,4th,,929-0417,Sakado,false,base.user_admin
__setup__.partner_26950b0d34d02e184b8fecaae553f5e6832b2808,Etta,,,Mallard,Street,667 01,Židlochovice,true,
__setup__.partner_8cbf4e3706de7ca600352b8b34b51256340bdab4,Babette,,,Graedel,Court,666,Eystur,false,
__setup__.partner_10973ddab9b78b4b5dff657424fd1bda13944898,Preston,,pgoodiercj@prnewswire.com,Merchant,,39510-000,Espinosa,false,base.user_admin
__setup__.partner_b4539f6a56c91eae03ec36297b9ecb12bbe33766,Isobel,+966-647-672-3667,iduddleck@mapy.cz,Lukken,,,‘Afīf,true,base.user_admin
__setup__.partner_d7165ddcd41048f19d8ae15729c77fd39292df6e,Alisander,,amacririecl@macromedia.com,Erie,,,Lidong,false,base.user_admin
__setup__.partner_4f5cebdd090c05df3de7b484269a72e3a8dcf998,Gun,,glutercm@devhub.com,Fuller,,082007,Galapa,true,base.user_admin
__setup__.partner_c0d9a1d73d78f9f8c93929d124b0e32400f4c4d1,Claudell,,ctichelaarcn@surveymonkey.com,Iowa,Center,445143,Podstepki,false,base.user_admin
__setup__.partner_bfc06c2f2e72f8d82555be4a020e49573ba9549f,Cammy,+60-391-237-3038,,Moulton,,25676,Kuantan,true,
__setup__.partner_ee40e30c5f618332eb0e6d497078285663484d87,Blondelle,+46-329-941-0489,,Rockefeller,,131 83,Nacka,true,
__setup__.partner_639c47e5cc7ce1e832496f66d7c04c65b57f1766,Lelia,,lissacovcq@aboutads.info,Huxley,Lane,3604,Kiangan,true,base.user_admin
__setup__.partner_2b85e7da7f7bc377bc6b3bfb45324a192b16d7ef,Blaire,,,Lyons,,5042,Lower Hutt,true,
__setup__.partner_056e134342da858add8e7c8e788e9f8cfb41607a,Clemmie,,,Cottonwood,,13028,San Rafael Petzal,true,
__setup__.partner_478f9b2a21d47112e5e77d484bdaecc721f67858,Alena,+53-969-158-8761,awathanct@dailymotion.com,Sachtjen,,,Baraguá,true,base.user_admin
__setup__.partner_45f027d2c9f124ced8ec02a578d41b2ae2767663,Ronny,+380-938-136-0283,,Barnett,,,Velykoploske,false,
__setup__.partner_9c384c32399f92b5725a29c95338341840b2961c,Massimo,,,Fair Oaks,,,Huaibei,false,
__setup__.partner_236cc4a079edeb3dc7084e95fd51160ef5f4e81e,Dreddy,,,Harbort,,,Luobuqiongzi,false,
__setup__.partner_09ec9c1b83827be33b21b15dd87e4ee45ef9a472,Carmella,,,Jana,,,Zhangdian,true,
__setup__.partner_b63e6f9b2306153fe9f49b106d568bcac7927756,Addie,,alyfordcy@japanpost.jp,Upham,,890-0073,Usuki,true,base.user_admin
__setup__.partner_bce5bb46d61dd824db3eee46a455ff51aba22055,Geoff,,,Dexter,,2080-006,Almeirim,false,
__setup__.partner_0edcaf5ce3e201e0514073ec604eb49692021c18,Aldridge,,,Shasta,,,Tianhe,false,
__setup__.partner_ab7ef73cdec196acba7f92e67ef05862560a73cb,Etti,,ewakesd1@disqus.com,Washington,,59-101,Polkowice,true,base.user_admin
__setup__.partner_01623e69884411eb2cc7e8811725d9eb39b61632,Myron,,,Arrowood,Crossing,,Lushuihe,true,
__setup__.partner_4d0c8f191ab00a82ce0c5419263f862d1fe8cf8e,George,+976-335-665-0003,gdoolandd3@nationalgeographic.com,Northport,,,Enhtal,true,base.user_admin
__setup__.partner_0988aea166403e28e7fde725ed6ce5b084068aa4,Nial,,niversond4@woothemes.com,Leroy,,308510,Safonovo,true,base.user_admin
__setup__.partner_8ade15403e3725336dc2a67e9593d3df92212bfe,Clarine,+86-687-294-9174,cbustardd5@weibo.com,Cambridge,Junction,,Haolibao,false,base.user_admin
__setup__.partner_efaf16891afac033cf265d1c0efb67e40e384abc,Clerc,,,Forest Run,,,Karangsuko,false,
__setup__.partner_03f3074bf265943e3c595f7fa205442b751cbeec,Erich,,esoreld7@furl.net,Cherokee,Way,4560-750,Além,false,base.user_admin
__setup__.partner_017dbb2a0e4c0d5d70dcd4554387d932e2643e72,Baillie,,bofogartyd8@google.ca,Vera,,G2L,Sicamous,false,base.user_admin
__setup__.partner_5993b95f2f4a082eb39a7da3425b702dcd343716,Honor,,,Crownhardt,,,El Regalo,true,
__setup__.partner_39daf449c107bc8f9916f456d840b37f7724e392,Willem,+98-954-880-9540,,Comanche,,,Akbarābād,false,
__setup__.partner_81e47ea61c89eed222dd965f3f13bd126dea8dd8,Gael,+234-749-497-5343,,Lukken,,,Gamawa,false,
__setup__.partner_915ac3b08bdd3ddf7c0d87e13cd00b13428c3078,Newton,+380-380-653-1486,,Jackson,,,Horodnytsya,true,
__setup__.partner_1da12c7e39d1c88affc2f3b35bf800d6f55447c2,Jenifer,,jsperlingdd@bizjournals.com,Pepper Wood,,48475-000,Itapicuru,false,base.user_admin
__setup__.partner_db8e34e57db61c39effa505038af44f0b4e44314,Sibley,,sduigande@de.vu,Lighthouse Bay,,68505,Lincoln,false,base.user_admin
__setup__.partner_5f5f480c9f848fcd954f5a3a6d4774b3936e1234,Jayme,+56-270-908-5269,jpilsburydf@scribd.com,American Ash,,,Tocopilla,true,base.user_admin
__setup__.partner_194244cc3b0c66f758c352813e9967f04e4bc4e5,Kori,+31-575-237-9380,kwifedg@yelp.com,Prairieview,,5904,Venlo,true,base.user_admin
__setup__.partner_d1a7e2dbb7966e9fa9bd36c4a572658f642db970,Anita,,,Morningstar,,,Fuyang,false,
__setup__.partner_9308509bb25bd448f9073984b576ded0e0c693e9,Jeralee,+86-572-793-4026,,Service,,,Meishan,false,
__setup__.partner_cfc6ce0823e51299c06d02ceb9b5d68164bb3e84,Marielle,+86-804-283-0241,mgreevesdj@ifeng.com,Quincy,Hill,,Bao’an,false,base.user_admin
__setup__.partner_85bead02d652b5430835c49f6b03b1f6454a81d8,Ardra,,,Artisan,,,Gérakas,true,
__setup__.partner_99e44acf5493b29945af799c6783e34c0e446598,Deeann,+81-955-180-4456,dgraeberdl@skyrock.com,Ramsey,Point,367-0251,Inazawa,true,base.user_admin
__setup__.partner_3e9816454113baeaf589d5351dc93a1a517920b2,Merrill,,mclatworthydm@netscape.com,Bayside,,,Qindu,true,base.user_admin
__setup__.partner_dc4b10c0bf32d90ed163d189bd369a3f7b23cf57,Leonerd,+33-382-149-7340,,Green Ridge,,84902 CEDEX 9,Avignon,true,
__setup__.partner_0386d19babccdd0f068ff92052dccca1e525c7bd,Reinhold,+7-250-434-7427,rbeenhamdo@upenn.edu,Larry,Place,186424,Segezha,false,base.user_admin
__setup__.partner_6fd4bc7d43b5e21d84d975e1b9ccaf684f385334,Tommi,+66-210-821-3337,talmackdp@people.com.cn,Westerfield,,56140,Pong,false,base.user_admin
__setup__.partner_65735e2c9e26c957c0084d11b058d35655d2165c,Rudyard,,,Northridge,,,Labuhanjambu,false,
__setup__.partner_b620b15a7981ebf738073949f41df3c3521e2256,Sterling,,snasseydr@example.com,Sherman,,7504,Tournai,false,base.user_admin
__setup__.partner_985a0e730aaf146e7d243b6cad8c75e46e9f1ead,Dolph,,dfeldmesserds@businessinsider.com,Forest,,,Pora,true,base.user_admin
__setup__.partner_821c520e18ce0dbfa4abd0310ac15d4da3209f41,Stevena,,sgrimmerdt@state.tx.us,Carioca,,,Palumbungan,false,base.user_admin
__setup__.partner_bd99ce2b2c7bfe549e97886f04fb69548e1b30e7,Roland,+380-300-703-9513,rbullardu@guardian.co.uk,Magdeline,,,Baryshivka,false,base.user_admin
__setup__.partner_32482862be35f1fedf7b43b9fd139612c78dfed9,Spense,+81-318-897-2295,,Dennis,,930-2111,Kamakura,false,
__setup__.partner_4ec1d516dc1b8b2c98a3932f9f5c96f697d21de6,Gothart,,,Loftsgordon,,7109,Seres,false,
__setup__.partner_66aa8d27a0b0f4410ffc0bf5c5fdca8538c4467c,Stewart,,sjulldx@yellowpages.com,Kensington,,,Shunling,false,base.user_admin
__setup__.partner_c8a1cce0754cc3b9f081065c0b609377919427ba,Garreth,+1-941-996-7605,gsandilandsdy@printfriendly.com,Springview,Street,34108,Naples,false,base.user_admin
__setup__.partner_fba9914729e4faa7cff62c57485dede08e9905d2,Hernando,,,Algoma,,,Bayt ‘Ūr at Taḩtā,false,
__setup__.partner_28d61d7505af4a99bda46a463442bcea76197768,Almeda,,,Prairie Rose,,,Gesik,false,
__setup__.partner_a3caccf3c00ad3efbc649d06ede1c40cc145f1f2,Minnnie,,mbeckhousee1@sphinn.com,Shopko,,,Klevan’,true,base.user_admin
__setup__.partner_bd8ce4404ff7eb208f8892d682d851655f5c3a5b,Hedwig,,,Luster,,,Khartsyz’k,true,
__setup__.partner_d1f9a9b11423c4e32faf1bc5af39471193d2624b,Annemarie,,agoldsberrye3@mashable.com,5th,Hill,361805,Zhemtala,false,base.user_admin
__setup__.partner_824f9cf6350cb02fa6b16e34b530e01e703456bd,Natalee,,nratterye4@sakura.ne.jp,Washington,,,Zhenxing,true,base.user_admin
__setup__.partner_9a5592790f0ea2bdcaa70bc7f30b6b37d51fbe27,Bondy,,,Sutteridge,Parkway,2718,Cervantes,false,
__setup__.partner_490146ed27cdec6c9ba0ce9889493ff03b4cad6b,Beilul,,,Clove,Junction,,Qiaoxi,false,
__setup__.partner_fafd0b7b8a8e84df48c0b35bdd4ffc29559172d7,Flint,,,Stoughton,,11910,Riihimäki,false,
__setup__.partner_011473c3d72f91f84916864e6b343a4f067ae7c3,Kyrstin,,,Clarendon,,,Xue’an,true,
__setup__.partner_a69eb04268a7d1c9a10a01b6a4be6b4d5f1c7f08,Kit,,,Sachs,,,Cimadang,false,
__setup__.partner_55a0e50edab0e5d18754d7de4a5cf3fab0a68747,Maryrose,,mceeleyea@lycos.com,Village,,47-280,Koźle,false,base.user_admin
__setup__.partner_03e198c8402e0276a8c99b3c8f9dde66b327c225,Helenka,,hmchenryeb@auda.org.au,Mcguire,,5209,San Luis,false,base.user_admin
__setup__.partner_1dbed105689bb8f2b0eceeba979c153142cf1062,Bevvy,+63-117-454-4313,,Mayfield,,5504,Binitayan,false,
__setup__.partner_b72b7b7f80cd15430317e3fc6a37b54645da4bde,Nollie,+62-339-313-8066,nbristoweed@omniture.com,Shoshone,,,Sukasada,false,base.user_admin
__setup__.partner_1f76d4230257719eb71cf8ccd8eb15a1a07df681,Barnebas,,,Pepper Wood,,,Lampa,false,
__setup__.partner_140f0206ee9541b730ef6e84c3f2af66c6912062,Pauly,,,Hermina,,2708,Sindon,true,
__setup__.partner_de8444d03a02ffadcb3010a3505d8fa983ac53e4,Shayna,,sminchindeneg@sogou.com,Hanover,Drive,,Shangzhuang,true,base.user_admin
__setup__.partner_4828a2c1ddbb90d1c6e0b8ea52a8a952560f73e6,Marlie,,mestabrookeh@domainmarket.com,Bowman,,,Qarāwul,false,base.user_admin
__setup__.partner_91cd9e8929ef030c8e38afcacbf5366469b4c5f0,Griffie,,,Pleasure,,57210,Kap Choeng,false,
__setup__.partner_1ce238d3f21e1b9199a8e1df020c88e0443734af,Llywellyn,,lthrussellej@constantcontact.com,Jenifer,,2712,Santa Lucia,true,base.user_admin
__setup__.partner_5c00f7a01d097b1b59c8b0fc0305ebe1c7a77f9c,Maximo,+63-201-170-9010,msweetenhamek@unicef.org,Towne,Court,4335,Linmansangan,true,base.user_admin
__setup__.partner_624f17566eb6848a36b6b31d551e418fa5c58dfe,Carol-jean,,clowseleyel@ameblo.jp,Cardinal,,,Tambo,true,base.user_admin
__setup__.partner_36e808307057b5e01f98149cf0d6e9fe7d5b9fae,Hayes,,hlangleyem@wordpress.org,Del Mar,,,Jeong,false,base.user_admin
__setup__.partner_6b39427e7a7c0190c6eac3da32d69140071b15e5,Karolina,+48-493-531-6997,kgobelen@chicagotribune.com,Rockefeller,,59-402,Jawor,false,base.user_admin
__setup__.partner_5e76db3714aba492e5c287623908eb822bec9b5b,Glad,,,Oneill,,22710,Föglö,true,
__setup__.partner_63c9921d913f97a9a8e993c072ffb16c8b1a6145,Emmanuel,+46-443-209-1973,,Manufacturers,Drive,795 92,Rättvik,true,
__setup__.partner_4926191171bf1242f90968ceea7cb150895ce5e5,Jilli,,jthorlbyeq@fastcompany.com,Crowley,Pass,15200-000,José Bonifácio,false,base.user_admin
__setup__.partner_3b6ef53d6bb05ea6cba4bf9c5ee63b631d9516e4,Leigha,+86-166-848-0445,,Bluejay,Road,,Jiaoxie,false,
__setup__.partner_a413ff9419964c259c2472a07622077f70507c68,Karlen,+976-208-628-8167,,Luster,,,Jargalant,false,
__setup__.partner_043d27f3f66f68628495267304cf12f79775846a,Selma,+358-914-404-9203,sloftyet@cam.ac.uk,Bayside,,83101,Liperi,false,base.user_admin
__setup__.partner_924df4ad916392c21ed1fe8ca9d388042bbeaf34,Herculie,+52-292-707-9938,hmeeseeu@issuu.com,Garrison,,56700,San Diego,false,base.user_admin
__setup__.partner_9fb97559dd91ed1207d8f11558c3735895b1887f,Papageno,,pmarfieldev@bigcartel.com,Welch,,,Lëbushë,false,base.user_admin
__setup__.partner_97ffc6de67f898ced6b482da8590e6451d94b728,Camey,,clawleffew@sfgate.com,Elka,,,Cotahuasi,true,base.user_admin
__setup__.partner_79e9298cc1b946c4b64a00f595b519b9822a01d4,Olga,,,Buhler,,66-500,Strzelce Krajeńskie,true,
__setup__.partner_9bc1b8e3031bc0c0071de97b30d27b59ac8ec928,Jone,,,Jana,,2661,Kruisfontein,true,
__setup__.partner_3726a38183c9d6990f2e1c4d1800f51947d68146,Corissa,+86-394-171-6554,,Blaine,,,Dazhou,true,
__setup__.partner_f578e22795f563a779857b2be03c14a3a6f984b6,Arluene,,amonshallf0@pen.io,Mitchell,,,Nguluhan,true,base.user_admin
__setup__.partner_fb1b3c6140d44789ac648e21fb995923e6831519,Chloris,,,Manufacturers,,,Xiatuanpu,false,
__setup__.partner_f156e0e656a44f2ed0d2f9f5deb84d35b2e2a03f,Emogene,,ebrownsworthf2@scribd.com,Judy,,,Gujiang,false,base.user_admin
__setup__.partner_be47b279550d4e37fc5a38e9e1779ab1778a2856,Delcine,+86-635-321-9825,doleahyf3@wired.com,Westport,,,Jiulian,true,base.user_admin
__setup__.partner_f1a35956627e7438c76c937c57db513e645a8c75,Shelby,,,Sugar,,31422,Savannah,false,
__setup__.partner_82fbd65d3726d5314f301fde2a9c1c812f5a9a7e,Onofredo,+7-725-311-9081,odandyf5@pagesperso-orange.fr,Pearson,,357128,Nevinnomyssk,false,base.user_admin
__setup__.partner_10303579d9365c57628e93aec9004c5448bc2346,Brig,,,Sullivan,,,Huzhuang,true,
__setup__.partner_05a703ace8e745a170c8b43fa434ca1003d43a85,Guillermo,,gaaronsohnf7@com.com,Twin Pines,,65110,Bang Krathum,false,base.user_admin
__setup__.partner_aa115cb43cba82bdd273a95c0800c718a96a824a,Leonora,+86-588-465-2703,lshoosmithf8@friendfeed.com,La Follette,,,Huangzhai,true,base.user_admin
__setup__.partner_e5be74d83740763a3aee3d882e3abb78a975b710,Hussein,,,Springs,,64145 CEDEX,Billère,true,
__setup__.partner_fecbb023f35d06de1978ca727358ee833941998e,Leshia,+7-904-109-5714,,Morning,,186000,Olonets,false,
__setup__.partner_d719c9fd16ed3c88c5022aa302766393d2489a4b,Lucine,+64-797-677-3499,lsabbatierfb@networksolutions.com,6th,,7541,Darfield,true,base.user_admin
__setup__.partner_db6c7723a89292cbf2c20212207da49cdd5b9ecf,Kassi,,,Weeping Birch,,31225,Jelisavac,false,
__setup__.partner_e67b712f47bbcefafb944271c9dc5dba34e13010,Roxy,+7-901-214-9208,,Fairfield,,431045,Torbeyevo,true,
__setup__.partner_c40289c89bd057369d090ef7c96815909422ed5d,Free,+380-295-396-1131,,Farmco,,,Selydove,false,
__setup__.partner_e9ffcbf25d8013b852eb5bdfcb117baafd0c960c,Pearle,+86-946-936-8149,,Scoville,,,Wulingyuan,false,
__setup__.partner_4dbc30f3b417dee4f1e9f1ffe0c3b2b2bbdd77cd,Kordula,,kcayleyfg@yelp.com,American,Center,2608,Tabio,true,base.user_admin
__setup__.partner_282ef5dde534440c66dce5def9ff654c83ec6cf8,Jillane,,jchinnickfh@thetimes.co.uk,Lakewood Gardens,,,Luoping,true,base.user_admin
__setup__.partner_ec5088fb8466655770f4145487eee3f042d46b7a,Sherlocke,,sfourcadefi@tuttocitta.it,Kennedy,,403538,Frolovo,true,base.user_admin
__setup__.partner_657485ef180e8166ea3ffb88a144aa95f8383792,Keelby,+51-670-351-6197,kdemarchifj@ftc.gov,Everett,,,Yanaoca,false,base.user_admin
__setup__.partner_fb4c789a2cfa942ffc6d2c2d0553d7f5a7659d3a,Frederic,,,Glacier Hill,,69624 CEDEX,Villeurbanne,false,
__setup__.partner_ff2ec2457358c51932138537d4e7e3e207775189,Kyle,,,Cherokee,Terrace,140231,Poykovskiy,false,
__setup__.partner_b77f1448bd7156a547a437ad28d94e459486cd7d,Cassandre,,,Monica,Center,,Cangshi,false,
__setup__.partner_f00d6a9443b8a34b2dae3fe5ceb37de6e4b1850d,Wanda,,,Victoria,,,Saray,true,
__setup__.partner_b4bde01d7c4c675393f0a69755a0f3638267688f,Vernon,+1-431-403-0923,,Fieldstone,,10109,Fundación,false,
__setup__.partner_d9f1fb0b6111a68633c118b8fbc7791739179117,Robby,,rrishworthfp@webs.com,Warbler,,,Jingzhuang,false,base.user_admin
__setup__.partner_67512ca72658bb44a74738f02480364e44566318,Chadwick,+420-544-527-1192,cseinfq@state.gov,Clemons,Point,350 02,Jesenice,false,base.user_admin
__setup__.partner_a9f17592b034aee5313995521d8311774dcdf477,Abbey,+62-415-868-6601,,Shoshone,Court,,Marang,true,
__setup__.partner_fbfe67b7e0caff90c29aeb3281721f803fe59a6e,Neysa,,,Kropf,,41-922,Orzech,true,
__setup__.partner_82775787f771e4dd9b832a328fe57db8651d91c1,Gabie,,,Bellgrove,,,Pingzhuang,false,
__setup__.partner_e993873b34b4279fde2d2f2c379c83a73daad865,Brice,,,Brown,,,Banjar Gunungpande,false,
__setup__.partner_0aeba2e6aa6a1931a612a04946eb8ecc233a951a,Rodrique,+380-708-450-0111,,Mariners Cove,,,Lityn,false,
__setup__.partner_33ea68b089feff90239564adc21f4fd3f20b6834,Tierney,,tdeganfw@tinypic.com,Arapahoe,,55417,Minneapolis,true,base.user_admin
__setup__.partner_78b325a65eb4477907bee4b401549a53fbd4f30c,Johna,+82-872-955-0788,jmagnarfx@tinypic.com,Brown,,,Seongnam-si,true,base.user_admin
__setup__.partner_224568025e7aa6cb78a579d05ac8cb8157b1a584,Joe,+994-737-930-3759,,Eggendart,,,Khyzy,false,
__setup__.partner_75e93a546603d606c6f7af1a9a8a51e16b4a3d5f,Leandra,,lmontaguefz@jiathis.com,Sutherland,,6312,Candijay,true,base.user_admin
__setup__.partner_eb0c75687717016b99753b28864997add857558a,Mac,+63-732-492-4242,,Lukken,,1489,Balatero,true,
__setup__.partner_02677812c898f70def94bb15c5d9ec9d292c9a1e,Marylee,+226-275-585-4377,mfildeg1@ycombinator.com,Cherokee,,,Gourcy,true,base.user_admin
__setup__.partner_93333d53cc8d9f12cd1ca3327ad20d2a59160263,Alicia,+66-593-639-7891,,Oak,,35000,Yasothon,true,
__setup__.partner_0ac9b92689b5d481b37f4b062214c39f8bfd8384,Dalis,,dlamertong3@nbcnews.com,Jenifer,,3534,Machagai,true,base.user_admin
__setup__.partner_c831ac6628dae8023a54fe2d68361116ba2588cc,Lemuel,+249-195-631-3098,,Farmco,,,Al Qiţena,true,
__setup__.partner_7d7066cf98a589e5d1b8fef05cfff1a6ded287ee,Concettina,+86-456-896-9095,cbretelleg5@myspace.com,Texas,,,Mangdang,true,base.user_admin
__setup__.partner_c01aa588c937c3b5b74e81f70cbd92fee0e68bf2,Andros,,asmedleyg6@google.pl,Granby,,595-0031,Abiko,true,base.user_admin
__setup__.partner_f1d8c057cb8d8dd28086309e4d827bb14b9de632,Vin,,vgotthardg7@engadget.com,Toban,,37-565,Mirocin,true,base.user_admin
__setup__.partner_8119e6280a0a7ab8f0f00a1add48308d035bd2a8,Hakeem,+63-356-835-2980,,Dahle,Place,9708,Cotabato,false,
__setup__.partner_18fb2d3b545da08a0fabfb4be7626469b4ee7a09,Silas,,sthomasong9@posterous.com,Elmside,,9560-097,Lagoa,true,base.user_admin
__setup__.partner_5d1a93a940cef74f41e1d1a025e95b8c72e04944,Fin,,fmeatesga@blogger.com,Kings,,33-383,Tylicz,true,base.user_admin
__setup__.partner_9088d67521503e1e483c19893b359994f42b64c7,Beilul,,,Karstens,,,Linquan,false,
__setup__.partner_b4ee7aa41c88a6daf8f820bb19b1807c190d982d,Malissa,,,Killdeer,,,Yiyang,false,
__setup__.partner_73cb577e2a36c7ab5345310955651e8751e5e1ed,Marietta,+33-743-271-4312,,Novick,,37205 CEDEX 3,Tours,true,
__setup__.partner_954f3d32e97c4af94621edb56e3db039a806093a,William,,,Bluestem,,8530,Panchagarh,true,
__setup__.partner_fc47206b46af3ffec25420c93d78dc13f1a3e1c1,Sofie,+63-957-161-3243,,3rd,Crossing,6814,Los Arcos,true,
__setup__.partner_30279855d49f6492e73c7c9fb55d1861d338d477,Angelina,,aramasgg@github.com,Walton,Trail,,Gandusari,false,base.user_admin
__setup__.partner_78cdb58e9020ce7273dd3735f6b908d8e0d76995,Der,+62-802-692-7696,dcaigergh@devhub.com,Swallow,,,Banyubang,false,base.user_admin
__setup__.partner_cac939952b46bde973cfa6b0311e8baac9ad0db8,Efren,+7-177-771-5224,ekilbournegi@arstechnica.com,Anthes,,655340,Bograd,false,base.user_admin
__setup__.partner_6624056e1369028ae0c7b9548541f09fa2048ab4,Alfie,+235-815-146-5570,,Gulseth,Street,,Aozou,true,
__setup__.partner_440b2e119e06972cfe4b4957052e35f242bf5ead,Aurel,+62-894-397-6520,,Ronald Regan,Road,,Leteki,true,
__setup__.partner_b00fe8840363c53202971b6ab9660b4d995be0d1,Clarie,,,Troy,,,Oodweyne,false,
__setup__.partner_a857f6b0d455a215c426fad1707262b977143cf9,Kirstyn,+374-757-913-5887,kalvygm@si.edu,Cardinal,,,Ptghunk’,false,base.user_admin
__setup__.partner_7ad8a62353c319b128e855e64d9e7d29b229ab86,Cathleen,,cellisongn@paginegialle.it,Jay,,545 30,Töreboda,false,base.user_admin
__setup__.partner_8996c58455ad99eb687d201355c98e03e4baea14,Gwenny,,gdumingogo@cmu.edu,Heath,,,Marjayoûn,false,base.user_admin
__setup__.partner_cc0c9279c481ed4d39e86867cf027647f66f81fe,Westbrook,,wcrosselandgp@usa.gov,Comanche,,,Paseyan,true,base.user_admin
__setup__.partner_8b8f3bee46969ae97aafd0bc6463c86bcc501850,Marian,,,Hauk,,60406 CEDEX,Noyon,true,
__setup__.partner_d4eeb62121d4dc802ea7f2a46f384eec9d8cf042,Caralie,+1-288-976-2350,,Talmadge,Plaza,V3B,Coquitlam,false,
__setup__.partner_f316e1813f2110f4ed6058b9c5a4a1d52e27485b,Elliot,+62-136-841-3737,,Ryan,,,Kuaro,true,
__setup__.partner_9c5ebd9e8986f697bcfd32dbabd8d98b99f1d9c0,Chico,+1-419-582-2821,ctunsleygt@ucoz.com,Clove,,43615,Toledo,true,base.user_admin
__setup__.partner_3a719cba74a1679b2e79fba38602452d70e690b0,Latashia,+62-666-726-7930,lbattengu@dailymail.co.uk,Darwin,Court,,Karangsonojabon,false,base.user_admin
__setup__.partner_13014da71260c4c37677baec2000e5abf6a613aa,Shawnee,,,Dakota,,3230,Paso de los Libres,true,
__setup__.partner_9e6a9c4b66ac8ae0449d890738570d1a8a69f247,Caryl,,cscarglegw@icq.com,Oriole,,,Shpola,true,base.user_admin
__setup__.partner_fbcec7f6bb40921855671f00707b29842c71f0f0,Shara,+7-882-943-2042,sbenboughgx@cdbaby.com,Messerschmidt,,659434,Sarany,true,base.user_admin
__setup__.partner_2fa5c11fca745d4ed8bd34bb21a80e45349cc4aa,Michel,+54-700-538-4030,mayshfordgy@weather.com,Cordelia,,5401,Tamberías,false,base.user_admin
__setup__.partner_cbddae20045356c4614314945fda1c80e88f317c,Evaleen,,,Warner,,949-8522,Date,true,
__setup__.partner_335b62c94cadfb2afb961c7f3ab940cfbdb6a522,Hally,,,Evergreen,,,Narach,false,
__setup__.partner_879e5d1f525cc921be9fed105c971ecf78a693cc,Avie,,,Melody,,,Skópelos,true,
__setup__.partner_7d511f9fa422a6266df8e6df80d8cc326b722f18,Torin,,,Kensington,,,Bucu Kidul,false,
__setup__.partner_782ce31f6dc37140a1fd98015208e20fb0b052ba,Barris,+57-414-934-0264,,Westridge,,234008,Montelíbano,false,
__setup__.partner_89dda2588da732ee7d970e01275be3fdb51ea89f,Timmy,,tbennh4@stanford.edu,Jackson,,10505,Baní,true,base.user_admin
__setup__.partner_01ae656ea60c83ad5ddb9a97c9a2f224767f6053,Sonnie,,sduckerh5@prweb.com,Pawling,,,Alukama,true,base.user_admin
__setup__.partner_e6c126d25b3bf28a94ce7bbc5df2ad0bfea53430,Ryan,,rleversonh6@wisc.edu,Evergreen,,5316,Malinaw,false,base.user_admin
__setup__.partner_9552f5f26f45498fd9989074c3773ff4417f369d,Ingmar,,,Buhler,,155526,Furmanov,true,
__setup__.partner_ffa7585c5545959cd39cd60eb16f18f13020cbb0,Yancey,,,Eagan,,,Xinchengpu,true,
__setup__.partner_b08f65ec9059cbd5a9f4d4708902e2c96c5dc7d0,Lindie,,lmacgiollapheadairh9@1und1.de,Schmedeman,Court,522 32,Tidaholm,true,base.user_admin
__setup__.partner_22bc553e8847e875aab22fa6c18604d0a014b43d,Adda,+31-872-874-2302,amacquarrieha@engadget.com,Meadow Ridge,,5249,Rosmalen,false,base.user_admin
__setup__.partner_c2c2905d945a72730c31948cf19ed4f0ea58692e,Wyn,+20-717-643-1734,,Coolidge,,,Shibīn al Kawm,true,
__setup__.partner_ef88dd84a08e364b5294e88947f251716aa054b8,Jeramie,+84-507-583-5922,,Autumn Leaf,,,Thị Trấn Than Uyên,true,
__setup__.partner_c722e17429318e976d285539e4afe4c73e6be5ff,Jacquetta,,jscotcherhd@economist.com,Warbler,Plaza,346050,Tarasovskiy,false,base.user_admin
__setup__.partner_d654ad407f69bcd03c443ab921cff568061c35f3,Harald,,,Namekagon,,,Huizhou,true,
__setup__.partner_80a1f480f56b76088199e4ff424f53953137d89e,Orly,+82-869-273-9155,,Oakridge,,,Cheonan,true,
__setup__.partner_af7fae4e240b29649f874e167ad10847f94010e2,Gwenny,,,Autumn Leaf,Terrace,1102,Kauit,true,
__setup__.partner_a44cb01313b5bd046183506e1235907f0b0264b2,Ruby,+591-755-932-7830,,Forest Dale,Plaza,,Huatajata,false,
__setup__.partner_b6ce546ccc101ac3608d5af88291e71c13d36e2a,Quillan,+856-326-381-5400,,Shoshone,,,Bolikhan,false,
__setup__.partner_2586ec69eee6b7735b6fe9403f188a5794d04850,Leonore,,,Toban,,,Gurinai,true,
__setup__.partner_2d5e51f27fee8a4c69a9373993c517c1339d95f1,Frants,,,Bowman,,403467,Sivaki,true,
__setup__.partner_4e2bf881ce27fca12bcba71aea7a1866eac6817e,Amalea,+62-121-787-2710,akopechl@java.com,Brickson Park,,,Tuwa,true,base.user_admin
__setup__.partner_1621b4b6ccd85f15d554faa7404a7d0bb030ea7c,Mollie,,mscarlethm@smh.com.au,Carey,,353029,Novopokrovskaya,true,base.user_admin
__setup__.partner_a323a90946b9426d04fcfa8095b4afc62f7f3cdb,Tessa,,tsmalleyhn@fastcompany.com,Mifflin,,,Eisen,true,base.user_admin
__setup__.partner_b4badaf80bffecb9eb7e2c4f3d6368602ce7a605,Winifield,+62-549-878-5379,wkarlssonho@epa.gov,Mifflin,Parkway,,Sungaimaja,false,base.user_admin
__setup__.partner_47a2269dbdcac139b22fa0401db531ab2ea1dbe3,Jenni,+358-409-235-1745,jlambshinehp@aboutads.info,Sommers,,83101,Liperi,true,base.user_admin
__setup__.partner_46cf54a5f5cae4e868155d8c0ef46fc7e35e6723,Laetitia,,,Lyons,,403 13,Göteborg,false,
__setup__.partner_0467f32cfb9c09b3c041bdb472287ae609e2ccc7,Adamo,,,Anhalt,,,Fontanka,false,
__setup__.partner_e8b45aeaf7e604fbf9a2f2d705212aefabc47e16,Tony,+63-595-321-5227,,Crest Line,,6527,Jaro,false,
__setup__.partner_5a68d5a00fffe884f1a2a3b8e35ba61035db704a,Tobey,+86-177-315-3569,,Moland,Court,,Hongxi,true,
__setup__.partner_8184ff1d3cb86d623a327b5e21f86fbe84499dfb,Cassy,+7-407-176-6342,carchbaldhu@apple.com,Garrison,,186000,Olonets,false,base.user_admin
__setup__.partner_4639d3e04863fb285b6cce871215169673cc6a1a,Brooks,,,Aberg,,9540,Koppies,false,
__setup__.partner_dd9503ef05bc7aff605999b76203486e77192ada,Tammie,,thungerfordhw@issuu.com,Dapin,,,Guantouzui,false,base.user_admin
__setup__.partner_52f878fd63e9ed9215951ea5fbbd091dd144650a,Bax,,bdollehx@devhub.com,Arkansas,Park,,Chengguan,false,base.user_admin
__setup__.partner_3f287deea610cb6bb0631c93876a5dfbad1f6d97,Putnem,+62-634-464-2501,pcottishy@java.com,Kensington,,,Cibodas,false,base.user_admin
__setup__.partner_45dd27345b5e7537299831b291028ce6df6a48c0,Juliann,+691-409-550-4215,jbaishhz@dmoz.org,Mccormick,,,Palikir - National Government Center,true,base.user_admin
__setup__.partner_fa290d2ccea291e9f65599427fd189ecf351ac84,Nestor,,nkeesi0@bbb.org,Maryland,,40293,Louisville,false,base.user_admin
__setup__.partner_237877d922259431fef22602bdc4ab8a6a27fa7c,Lionel,,,West,,22119,Merrifield,false,
__setup__.partner_d60e7902a48ba70b1ed3e5597983ddb6e9949b95,Valle,+62-932-843-1524,,Sugar,Circle,,Pasirangin Tiga,false,
__setup__.partner_f8c8d9a1bb97cfb5f3b9264af4415dc212cd90c1,Kelly,,kmacclayi3@salon.com,La Follette,,2870-632,Jardia,true,base.user_admin
__setup__.partner_5a67276add7b16cdc05eddf700b4ddb16386104b,Morissa,+86-837-312-4827,mcolleyi4@amazon.com,Hoard,Hill,,Guluoshan,true,base.user_admin
__setup__.partner_809244f4abcd4c72b69a453afc1caf62d7f85a0f,Dore,,,Amoth,,33209,Gijon,true,
__setup__.partner_41f160f40c3f75ebd955bc580fdae394a52cbf36,Valene,,vescolmei6@gizmodo.com,Lunder,,,Riđica,false,base.user_admin
__setup__.partner_7a2f312ccc5db4aedab918d564d40a457ebdfb67,Meggi,+963-653-774-5083,,Blue Bill Park,,,‘Awaj,true,
__setup__.partner_4ae1716bfadec02d295d53b3f1578d4fd372d30c,Ozzy,+263-487-738-9535,,Arizona,,,Masvingo,true,
__setup__.partner_b940bc2a82abd907dd4c73ce88fdc4e24a9eece4,Malachi,,msimonetti9@usda.gov,Macpherson,,,Yanas,false,base.user_admin
__setup__.partner_7fa3bacb06f58ad5573fe744b6c0e1dd01ecce2f,Frederik,+62-501-873-5082,fmccarlieia@adobe.com,Logan,,,Sritanjung,false,base.user_admin
__setup__.partner_4aed6148d12be65ff79a619b0ff461070af36c3f,Tiena,+7-754-393-5558,,Comanche,,187349,Shlissel’burg,true,
__setup__.partner_04f370cbc64e5fa342b9b5911b6bf8dba2755c2d,Lionel,,,Dahle,Junction,,Tinaco,true,
__setup__.partner_68189a47ef600c4090f6832855a391a2723aef18,Olivette,+355-278-737-0615,ocottisid@homestead.com,Golf,,,Orikum,false,base.user_admin
__setup__.partner_e36289acc46c1bf0a6bbf141a8ab2c0415f4aafc,Averil,,abosenceie@buzzfeed.com,Lakeland,Center,366101,Grebenskaya,false,base.user_admin
__setup__.partner_efe6c371a7f468d01ccae3b6fb599ef7316123d6,Dix,+972-511-296-7536,dreilyif@craigslist.org,Dennis,,,Qiryat Shemona,false,base.user_admin
__setup__.partner_26e6b43c9374cb19c27f4fcc3f7d2fe165afc030,Cristine,+1-630-423-2257,,Bluejay,,60567,Naperville,true,
__setup__.partner_7961b4f390858def0e3c07a4e97fe0ab411f8035,Lyn,+33-463-586-9002,lgowansonih@apple.com,Namekagon,,77815 CEDEX,Moret-sur-Loing,false,base.user_admin
__setup__.partner_51a2fe3f097eda37bff0143faf23f84e21b631d5,Sloane,,stouhigii@spiegel.de,Melrose,,96230-000,Santa Vitória do Palmar,false,base.user_admin
__setup__.partner_3112799fb2308fe71946da6aff2a7264859fd16e,Coleman,,,Pine View,,7213,Concepcion,true,
__setup__.partner_6257b92650f279ac87b12cd74a7e0bcb0b6a0f81,Susette,+7-683-583-3695,sgainforthik@princeton.edu,Hoffman,,460508,Nizhnepavlovka,true,base.user_admin
__setup__.partner_0ede47e10e9e86baadbb8f178cc557bdb964da37,Abe,,,Mallory,,,Mendoza,true,
__setup__.partner_06048872b8787b0f319fb8b83e4105c2c7097b0b,Griffy,,gshmyrim@wikia.com,Kropf,,,Adassil,false,base.user_admin
__setup__.partner_378fab5f9df97d5dc302159caeba44aacc644019,Cordell,,classetterin@geocities.com,Golf Course,Trail,,Zouiat ech Cheïkh,true,base.user_admin
__setup__.partner_cd06779d779fee8940438409753546d9ce6a1c28,Idalia,+98-676-749-8304,iwoolmerio@plala.or.jp,Towne,,,Galūgāh,true,base.user_admin
__setup__.partner_002280b3d5ae126b51897d3b3be7ff338c9ed5eb,Bone,,,Briar Crest,,0557,Lephalale,true,
__setup__.partner_755de1d553455b759eca9a833bb7a3ed15b99219,Dennis,,,Lerdahl,Plaza,2635-012,Albarraque,false,
__setup__.partner_ddda48badbb467dc33287f2ccc8ca2838ac47489,Rudd,,,Eastwood,,18013 CEDEX,Bourges,false,
__setup__.partner_ec9bd263173cf9c47a4d218a7b2f7e5643ebfc3a,Base,,bsimenonis@yellowpages.com,3rd,,,Bolian,true,base.user_admin
__setup__.partner_2712d926fd546a0baf5293dac09fc4aff44f7459,Leland,,lheardit@dot.gov,Nevada,,,Anqing,false,base.user_admin
__setup__.partner_0cc77f60129a631f70fc2f253686406698903794,Callida,+81-955-102-9815,,Scofield,,839-1407,Miharu,false,
__setup__.partner_5d99fa544cfd7247883b9330e9f2be08e7cad5da,Louisette,+86-324-252-7509,,Meadow Ridge,,,Mengzhai,true,
__setup__.partner_d6647405518dc1f47f3d2aa8b7dd5c8d62fd100e,Antoine,+92-527-762-5440,ajulianoiw@bloglovin.com,Glendale,,86000,Chaman,true,base.user_admin
__setup__.partner_19093d6759b55ce02fbb14fc49c5f5776082c996,Nell,,nplastowix@buzzfeed.com,Raven,,348 06,Přimda,false,base.user_admin
__setup__.partner_c9c480fe10c090cea1f4457062ce704a7a1a39ff,Ania,+977-184-110-6058,,Killdeer,,,Bāglung,true,
__setup__.partner_b8ccb2c77268958add71a5090c82f3c22d2e1d3d,Gabriel,+86-374-689-0266,,Di Loreto,,,Sanquan,false,
__setup__.partner_4108f0530c502a6176e93ec863354940fe13ecff,Kingsly,+86-738-642-9016,kcuffinj0@networksolutions.com,American,,,Chengxi,true,base.user_admin
__setup__.partner_1ae2f263c59da5a91407a4f9e21a53700f373241,Clemente,+351-852-858-1783,cgreensittj1@tinyurl.com,Crowley,,4580-630,Corujeira,true,base.user_admin
__setup__.partner_4f1d29a71587d68b9950b255f4f1f12f0331cacd,Anna-diane,,adunbabinj2@1688.com,Lakewood,,,Bangbayang Kaler,false,base.user_admin
__setup__.partner_b5d4211f06acb9aba3c2f59cdc67edf523a568a5,Christina,+30-585-993-3506,,Milwaukee,,,Pedinó,true,
__setup__.partner_8b5a74da62fb9540268449feda084703dcf1617a,Lilias,+46-389-109-9104,lsollomj4@mashable.com,Dorton,,850 09,Sundsvall,false,base.user_admin
__setup__.partner_63e3ac7769ae462b6810ea0c8af561faee4e1096,Kiley,+66-839-535-7583,,Veith,Lane,61120,Thap Than,false,
__setup__.partner_e05bffda0e66167192a637e14a19703c1a2db542,Filmer,+358-832-208-6709,flerwellj6@cdbaby.com,Truax,Hill,03620,Karkkila,false,base.user_admin
__setup__.partner_63cff0ac9413562c585bd73a0b4782dec1155649,Raf,,,Declaration,Street,6224,Nueva Vida Sur,false,
__setup__.partner_8715ebc06a82545a43cf9929f1bd6aff8539d772,Isabeau,,iaupolj8@liveinternet.ru,Namekagon,Place,,Changleng,true,base.user_admin
__setup__.partner_5cfdc29b8d3373962eb3f0d91395826199c104a4,Shayna,,,John Wall,,,Jiangyi,true,
__setup__.partner_e086110691d27915daa178c754d8654b1e462325,Tobie,+62-115-223-4478,tbenneja@lulu.com,Graedel,,,Belajen,true,base.user_admin
__setup__.partner_0220f0945c48199b209db8d50246b975746c08af,Tucky,,,Ruskin,,83320-000,Pinhais,false,
__setup__.partner_f95671eaf579991c5ad19ecd24679f4b7d740bf4,Elia,+46-176-937-8453,eaikmanjc@miitbeian.gov.cn,Mendota,,667 30,Forshaga,false,base.user_admin
__setup__.partner_00d11c3aec877be8749cbb8e9eabbc3bbe13ea32,Trenton,+33-495-185-7979,tschwerinjd@pagesperso-orange.fr,School,,75104 CEDEX 02,Paris 02,true,base.user_admin
__setup__.partner_e068f5694c4a8f74c6695fa82e4eb54a22b660d8,Stormy,,smcillroyje@moonfruit.com,Manufacturers,Plaza,143020,Novopodrezkovo,true,base.user_admin
__setup__.partner_8ff3bd0e67fb17dfefbf7bf712f0a115b0c2f4bf,Glynis,+62-340-900-1467,,Marcy,,,Kimakamak,true,
__setup__.partner_5b46fe875f145397987b63b2b35d6dd2958f05de,Clementine,,,Veith,,,Sumqayıt,false,
__setup__.partner_b97eb22cff481270bf7ae7824014456a6200cd95,Travus,+63-238-518-0884,,Reinke,,9507,Tampakan,false,
__setup__.partner_1e5998360e26e973de5b15ce9729ed5e652d24af,Mavra,+63-250-230-4738,mbricklebankji@webnode.com,Bellgrove,,2720,Abut,true,base.user_admin
__setup__.partner_0ec6e4f5d5db1cb56954c7eec32ba622e9cfe670,Graig,,gcamseyjj@umn.edu,Blackbird,,,Pasarkayu,true,base.user_admin
__setup__.partner_0e2d3e541afa7939e7c65c82eb0d1d6a5e8040d9,Elenore,+234-895-758-2563,,Sugar,Plaza,,Ode,true,
__setup__.partner_6f9396698dbffcfab6675399adf73047d205a14d,Philly,+234-170-484-3194,pcolmerjl@amazonaws.com,Hanson,Point,,Jos,true,base.user_admin
__setup__.partner_fd2bb4095adca7730755068717338d8867b6dab0,Vassili,+20-513-266-9433,,Clove,,,Kafr ash Shaykh,false,
__setup__.partner_706249760331450ff01c2c088ee0a8b423c1e605,Cynthie,,,Lawn,,,Cankuzo,false,
__setup__.partner_53157f5e0e83961644f0b8fc80ae2d5af28fb4a3,Lorelle,,lcausticjo@simplemachines.org,Sherman,,659375,Srostki,false,base.user_admin
__setup__.partner_35546e54cf1e78111bae2231828a5360a18ea10b,Sophronia,,,Loomis,,3703,Gang,true,
__setup__.partner_5824f663a5a7a77726c6868e8c22be1b5203e56b,Quintus,,qdraudejq@163.com,Columbus,Parkway,56180-000,Cabrobó,true,base.user_admin
__setup__.partner_d555cd7e3d9c2ee5d45aa4366f14a57025593808,Laverna,,lcamellijr@bloglovin.com,Ridge Oak,,,Jembayan Hitam,false,base.user_admin
__setup__.partner_818da9f53be904678f6739bf1661d0e654d2278d,Mariam,,,Arapahoe,,,Soavinandriana,true,
__setup__.partner_fa7d4f991d5a3bdda773ca6bd3a26385f0d41b93,Ricard,,rminerojt@elpais.com,Stuart,,,Zhangxi,false,base.user_admin
__setup__.partner_0a973e968907d162cb94bd296f552450a824f536,Filide,,fgreenleesju@cnet.com,Maryland,,,Kyaikto,true,base.user_admin
__setup__.partner_7bbf3fb4d7a8d566e412316004e3451ac684dbae,Norbert,+27-383-421-7210,,Kropf,Junction,8680,Vryburg,true,
__setup__.partner_157ec151863f83b123d1dbbefd385c84cb42bedf,Addy,,aclipshamjw@netvibes.com,Chive,,,Moijabana,true,base.user_admin
__setup__.partner_4a3596c216941757c9d5273a86de87aed94e026c,Frans,,fwiddisonjx@disqus.com,Hauk,Drive,,Hadyach,false,base.user_admin
__setup__.partner_001a61dcd0f31d6de79531454db42712cb307243,Ashley,+1-514-666-2248,aforrestalljy@spotify.com,Shoshone,,N8M,Pilot Butte,true,base.user_admin
__setup__.partner_fdb83415a7a740334587a6a8e222129df1145a65,Mart,,,Farwell,,575 35,Eksjö,true,
__setup__.partner_791efd8cf82e531c090a3130653d4cae9f3d4edc,Sam,,sgreguolk0@ucla.edu,Boyd,,,San Cristobal,true,base.user_admin
__setup__.partner_d2321efbb889c70241546b54afbb826d2c620f68,Alejoa,+7-286-461-3146,askakunask1@tripod.com,Hoard,Parkway,665824,Kachug,true,base.user_admin
__setup__.partner_44606bb8b63945a62d8df6590e9abfeb679b06fc,Pearl,,,Butternut,,85304 CEDEX,Challans,false,
__setup__.partner_1c129f922a6d3119033dacdc632dfb19a433e71c,Marilyn,,,Dakota,,446009,Syzran’,false,
__setup__.partner_38394f75491b3ddbf594d2dea4ce7571362c5837,Eulalie,+62-165-282-1880,esangark4@tmall.com,Vermont,Park,,Kiraman,true,base.user_admin
__setup__.partner_17e263e29aaed90f1bc7c9def3828927e2ced670,Carlie,,ckermathk5@4shared.com,Sachs,,,Xishaqiao,false,base.user_admin
__setup__.partner_f46b115f75db01742ddbc10f298df0a6268886bf,Wernher,+7-777-807-6347,wbrellink6@yellowbook.com,Eliot,,422840,Bolgar,false,base.user_admin
__setup__.partner_d3983ab8af7ec05039129176fc2cfd13a233e281,Jourdain,+62-680-700-3575,jmuccinok7@comcast.net,Swallow,,,Pejek,true,base.user_admin
__setup__.partner_60a1e420a2fda85ff3e7aed2a8322e58841321aa,Cesya,+269-450-646-8702,ccyphusk8@seesaa.net,Lakewood Gardens,,97615,Dzaoudzi,true,base.user_admin
__setup__.partner_d34d23159195d00b19c89151206d3ddbd1911cb0,Marley,+420-727-126-4286,mcrowek9@usnews.com,Waxwing,,751 21,Radvanice,false,base.user_admin
__setup__.partner_f6dc46a010c19e3a8a665bdefa64563c96fe41b5,Ingar,+225-477-760-0234,,Algoma,,,Daoukro,true,
__setup__.partner_bc9816d560cba81f0bdb4dee7f975e587ed2ed8a,Eleanore,,edaintykb@europa.eu,Sloan,,,Zhendu,false,base.user_admin
__setup__.partner_2b81781f9ea290de76e7c5a74aabef5e5898a279,Hi,,,Helena,Pass,,Babakan,false,
__setup__.partner_2128e78ba9e81cf6e0f33161ada7d7cb812e486b,Charlean,,,Hanover,,,Ughelli,true,
__setup__.partner_61451dfe2629e5e94cb181acac9128d6e94b38c5,Winnifred,+237-700-845-2523,wstellike@mayoclinic.com,Hallows,,,Diang,true,base.user_admin
__setup__.partner_3a3eb88faa1812851b84364c2d5b35e8b5d631a9,Beverly,,,Crowley,,,Qozonketkan,true,
__setup__.partner_5de4f62e5db7b743e246cb73fe9a3714443b52e1,Orelee,,ojiroutkakg@about.com,Oak Valley,,,Nawu,false,base.user_admin
__setup__.partner_52a12d67d76e4d8be81de96e1c716a5719444ef1,Evangelin,,einglesekh@rediff.com,Summerview,,2004,Haarlem,true,base.user_admin
__setup__.partner_bd9f4cb9bb9a65867cea02c2740280e5eb06c276,Tabbie,+86-206-602-2998,trastrickki@umich.edu,Ohio,,,Huixian Chengguanzhen,true,base.user_admin
__setup__.partner_8b695e064d7af85a07b70a30fca382d9bb36845e,Jolene,+7-885-381-0803,,Merrick,,452960,Burayevo,true,
__setup__.partner_0fb4ec9a5ebcad5bdc920342c1f128ed18564d73,Josefina,,,Manufacturers,Terrace,,Noemuti,true,
__setup__.partner_f78ae39bb9730f2747bd5a0c109a09f2aca5a495,Dorelia,+62-905-969-7710,dizkoviczkl@vimeo.com,Golf Course,Hill,,Sidaraja,false,base.user_admin
__setup__.partner_8253ea79f16f4b518b0583167fbedc06b5c951cf,Valentine,,,Waywood,Pass,5271,Burgkirchen,true,
__setup__.partner_8218321d7d43646f368d086c0e5c252003dcdb67,Pamella,+62-778-433-4274,,American,,,Kasui,true,
__setup__.partner_69a4fbe21e66ea52f7eb79c2b1e65cdacf7ce826,Anselma,,,Burning Wood,,141 99,Stockholm,false,
__setup__.partner_05342f62e19f20f69ad8cddf07433941a1d2ac4d,Evan,+351-975-745-9885,eramsbykp@surveymonkey.com,Kenwood,,2970-124,Covas da Raposa,false,base.user_admin
__setup__.partner_73c577a44405537895e00dc16f416979636f2bb8,Gerty,,,Pond,,,Lawonda,true,
__setup__.partner_44601519533c799aba027a70bca5b07f3def86ed,Bessie,+86-396-201-1197,bepiscopikr@sakura.ne.jp,Surrey,,,Ha’erlong,true,base.user_admin
__setup__.partner_49761163e250b023287908a4a25bba36b9910ab9,Alonso,,,Ruskin,,4701,Gabao,false,
__setup__.partner_426b211d246cd24cabfd8080fec6c0ecdcfa1202,Lexi,,,Grasskamp,Terrace,,Campor,true,
__setup__.partner_fe14e2754a27083d0c36fd0d785e6f84648c1f12,Vilhelmina,,,Bayside,Trail,,Chavusy,true,
__setup__.partner_3b4e7eb5eab452657bfa5a92867b2463b62cd171,Sherlock,,sbavidgekv@berkeley.edu,Barnett,,,Tebingtinggi,false,base.user_admin
__setup__.partner_56a7cd5d0a3d831c865e3e42b9f7497d958c7337,Gilbertine,+7-311-960-6594,gthomaskw@phpbb.com,John Wall,Place,249087,Korolev,true,base.user_admin
__setup__.partner_07b32da223ee276a6c3368425e9454d0b85a372c,Giselbert,+509-445-884-3789,,Tennyson,,,Petite Rivière de Nippes,true,
__setup__.partner_d91964452c4ed576677b8c19a5a0cbd28df76e2c,Leesa,+86-957-655-3968,,Golf View,,,Hulei,false,
__setup__.partner_bb7c87e56786a699e51284e4c1dd62df8aa0bbbf,Elvis,+86-450-201-2433,,Dixon,Park,,Jiangwakou,false,
__setup__.partner_9b4e4267af5500dea8a0803f1e9e6d5c83d4b7cb,Kellina,,kguynemerl0@ucoz.ru,Judy,,,Kenamoen,true,base.user_admin
__setup__.partner_a1fe0ccd9ebca57bc98246e641f32f6fc13d8087,Dimitri,,dbartolomeol1@mail.ru,Hollow Ridge,,,Sinarwangi,true,base.user_admin
__setup__.partner_0789479ba582defd08a03afaff134d49db6ebdf6,Beverie,,,Bluejay,Road,,Badai,true,
__setup__.partner_0b641139b1d57d59e5b32e44916a66f291a110d6,Lesley,,lgongl3@time.com,Nancy,,,Longquan,false,base.user_admin
__setup__.partner_a159f548a410028424a6af021126df81ccadc79b,Adrianna,,,East,,731 22,Köping,false,
__setup__.partner_2b2a7518c301b065923b98fe397ff9ea737539ed,North,,,Doe Crossing,,,La Colorada,false,
__setup__.partner_a608653674d3cf504afaa168989f2139900819c2,Mendel,,mmaltmanl6@merriam-webster.com,Truax,Center,,Yangiobod,true,base.user_admin
__setup__.partner_57cf814db64eaa52efe5e1475356390118d20c85,Tomkin,+1-862-190-1609,,Granby,,V7A,Ladner,false,
__setup__.partner_14eb277bfe8fad0e760bf65b62dc0daab9973545,Tyrus,,,Warbler,,582 46,Linköping,true,
__setup__.partner_9c1b5180cdf357b0e2e8b641f8574a29b93f1df8,Judd,,jmacalasterl9@networksolutions.com,Atwood,Avenue,,Tanakbeak Daye,false,base.user_admin
__setup__.partner_f0075e36b9382e49ea9c97e073514bff0366e5a9,Shaun,+81-589-807-5270,smeddowsla@fastcompany.com,Mayfield,,894-2414,Miura,true,base.user_admin
__setup__.partner_8a22473e7b02008a399ccfbd15b7d384c95e9e40,Alejandro,,,Carey,,,Pamanukan,true,
__setup__.partner_a4b7520dc3c6c4536931721febe4bf0981599c3b,Valaree,,vfullagerlc@ask.com,Amoth,,,Jauja,true,base.user_admin
__setup__.partner_3d676683579f9e13e9d13b2957f62bb32a359b97,Lorilee,+86-856-771-3250,lpeealessld@wsj.com,Wayridge,,,Rizhao,false,base.user_admin
__setup__.partner_2265de8f40369d9f06d597615920bbc3d5fef541,Shirleen,+84-242-381-2881,,Clarendon,Plaza,,Sơn Trà,true,
__setup__.partner_e892b477c77cff21ce643295a8adb19cba59bed9,Phylis,+237-393-901-3759,,Boyd,,,Wum,true,
__setup__.partner_5c71b2d99cc512cbb47d8b1909f1ce1f9685642a,Olivero,+351-374-424-8240,orosenstiellg@nytimes.com,Declaration,,2540-170,Casalinho,false,base.user_admin
__setup__.partner_794a5f155ed3542eb26508e831174281fda7d279,Morgen,,,Browning,,,Kärdla,false,
__setup__.partner_c75ed4dc4803f73d37bbb3d7465ecb8df139c9fc,Morty,,mjoreli@fotki.com,Bartelt,Hill,,Wassu,false,base.user_admin
__setup__.partner_0ea25adfe0ff4fc4ce3359fe496d227838908075,Bobbette,+63-433-473-2370,,Mockingbird,,4801,Bunog,true,
__setup__.partner_6b20c39f55d447cc0b89166c2c78d60ae5ceeccf,Sela,+54-980-185-6450,,Shopko,,4137,San Miguel de Tucumán,true,
__setup__.partner_9342567f6bff0a82d3c46a6484a9f89bbc2f7502,Annetta,+86-268-494-7501,aivesll@ox.ac.uk,Clemons,,,Sipeng,true,base.user_admin
__setup__.partner_aa906346cac664131f7712d43037989957d1459d,Sibeal,+51-489-576-2459,,Goodland,,,Acolla,true,
__setup__.partner_c14d8f99e745522552a015955efab35c88419e73,Richard,+86-995-593-7968,,Luster,Street,,Zhili,false,
__setup__.partner_ebbafa008f32edc1e89c96adbc05a15f13da2a7d,Pail,,,Drewry,Plaza,,Guanjiabao,true,
__setup__.partner_e405b98a79464e58a0cfc717136ca4339ce203e7,Tedda,+62-239-362-3733,tlandrieulp@tripadvisor.com,Loomis,Circle,,Padangcermin,false,base.user_admin
__setup__.partner_05a34a8db35f5902f07e7bd4eb69fe1418e9b791,Bennie,+86-350-994-0473,,Jackson,,,Duotian,false,
__setup__.partner_432f69d5ce022d7d0c70baf0e4c06cd814efd8bb,Catherina,+223-928-130-2375,,Bultman,,,Kokofata,false,
__setup__.partner_dc6d0c3a825efe1fd26c517fbb61992b1ca81da6,Etienne,,,Sunbrook,,79114,Freiburg im Breisgau,false,
__setup__.partner_c8d13421264c283c6392d9dbb9cfbe8c49a6e63d,Carlos,,,Norway Maple,,66-542,Zwierzyń,true,
__setup__.partner_414351c13f23d48a18548f12f02355dc62b30d18,Kain,,klemonnierlu@baidu.com,Sheridan,,,Büzmeýin,true,base.user_admin
__setup__.partner_dde365d4a22e17888fd0e8b2483b10edc54dcec3,Jethro,,jkerslakelv@liveinternet.ru,Ronald Regan,Plaza,147 42,Tumba,true,base.user_admin
__setup__.partner_30333fb2bb319aad78aca85d609ea053a5b90470,Sandi,,speetlw@prnewswire.com,Pleasure,,68-219,Tuplice,true,base.user_admin
__setup__.partner_82006230dcd3cef84143f6995258650d4af6c47d,Aloise,+48-354-152-3767,anaismithlx@google.nl,Dahle,,48-100,Głubczyce,true,base.user_admin
__setup__.partner_7c1a394007613e94ec9ccc4d3a60c7b4e89c1a33,Olivie,,oflandersly@parallels.com,Artisan,,,Naranjal,true,base.user_admin
__setup__.partner_6b1b4bdf2716f64110328187d2ccf21b7052c7de,Julietta,+86-121-455-0701,,Sage,Alley,,Moguqi,true,
__setup__.partner_58df246b7a380a934294afb42a63dbb5729763c5,Benton,,bdonneelym0@mozilla.org,Warrior,,,Solor,false,base.user_admin
__setup__.partner_fabdeb94f53cab49f30edad32459b1ffe427a40c,Araldo,,afluckerm1@yellowbook.com,Westport,,,Trâu Quỳ,false,base.user_admin
__setup__.partner_62b8381e88bc398406aa868d49a3d5148562be2a,Tamar,,tbramhillm2@delicious.com,Hoepker,,,Buenos Aires,false,base.user_admin
__setup__.partner_419a6c134c8b9d9e40b4c80af752be23da0bddf4,Anna,,,Everett,Park,,Pokrovka,true,
__setup__.partner_5ae4921cf72c6e1a627be0760ba4271edb027e95,Stefa,,scheckleym4@wiley.com,Tennessee,,3970,Empangeni,false,base.user_admin
__setup__.partner_91bf4eb12fea67c183c451a08d5db0fef4b352f1,Davie,,,Armistice,Drive,20167,Sterling,false,
__setup__.partner_ac04508312f73997c242294bacb454bb3c7d8483,Karlee,,klevanem6@skyrock.com,Almo,,,Dhali,true,base.user_admin
__setup__.partner_608836be875e5138442c369e342824587ed919eb,Dalli,,,Mesta,,8424,Burgos,true,
__setup__.partner_c8c960c38762dbbb3349dce1ad0e684917612aa0,Wiatt,,wstriplingm8@edublogs.org,Division,,,Pointe-Noire,true,base.user_admin
__setup__.partner_d882e480c51af88e03d25c9f4d444a6b52ad117d,Raquel,+81-779-829-7030,,Annamark,Crossing,818-0138,Dazaifu,false,
__setup__.partner_f1b9e7fa0931ce00b57e0bc85a7fae4c57572685,Clarice,,,Golden Leaf,,2425-497,Picoto,true,
__setup__.partner_db41f741649b09d4241a726f8c5ece9654936dfa,Carol,+1-616-782-8491,,Merry,Street,49518,Grand Rapids,false,
__setup__.partner_54a4eba5e5441517432ef59a485e3db7a7ffd7dc,Gleda,,gwhightmanmc@springer.com,East,,33209,Gijon,false,base.user_admin
__setup__.partner_b7f1601d125eb0609c93c783038ac54fda2e80d4,Loralee,,lcolerickmd@usgs.gov,Loeprich,,4520,Bogra,true,base.user_admin
__setup__.partner_19b5cb49187e2ef6c337acfcf4577a0db7427ddf,Webb,+7-719-986-5077,wcocheme@so-net.ne.jp,Burrows,,396130,Orlovo,true,base.user_admin
__setup__.partner_fc405d3e93d21d3a8f7b921c34f2712526f542da,Carolyne,,cbelshawmf@tamu.edu,Cardinal,Point,4960-320,Cortinhas,true,base.user_admin
__setup__.partner_a6d604260ec61ae1f83170aa0bb47aa17d729a4e,Adrea,+63-119-439-5740,aogormallymg@smugmug.com,Reinke,Drive,9512,Dahay,true,base.user_admin
__setup__.partner_f2e8cd1c0155b3114756075626f12ed9f9b0cdf2,Dennie,+86-153-537-7215,,Laurel,,,Heshi,true,
__setup__.partner_f9077de46e35f706f2407a947f0f1a8a50847c5c,Revkah,,,Anderson,Avenue,,Longzhong,false,
__setup__.partner_c10e6c49a12f1c1fee6173232381e5b3fd3ba6bd,Evan,,ekliemkemj@msu.edu,Morrow,,G5Z,Camlachie,false,base.user_admin
__setup__.partner_f48325285d473fce27bb5dad708b386c3fcf25c5,Rancell,,rmcjurymk@parallels.com,Rowland,,,Chenjiahe,false,base.user_admin
__setup__.partner_4f1791909f077c999ca8f7df681a560a45669311,Zita,,zflippelliml@disqus.com,Maryland,,84072 CEDEX 4,Avignon,false,base.user_admin
__setup__.partner_5491f50c638dd554d3873bef0368bf4e7d94a591,Dwayne,,dcrowcummm@vinaora.com,Mcbride,,,Ranisoba,true,base.user_admin
__setup__.partner_037d1f9eb27969c5715f5c4f116e2e2ef38a4803,Annadiane,,,Schurz,,8707,Tambac,true,
__setup__.partner_3fcde250792ec1b50281ff0f353d44272e5d4586,Dur,+82-898-139-1241,diacomimo@qq.com,7th,,,Changsu,true,base.user_admin
__setup__.partner_266b7a4668ee2408fe3f36fa19f09c0851724830,Felipa,+86-418-509-9321,fviciosomp@exblog.jp,Badeau,,,Maogang,false,base.user_admin
__setup__.partner_570cf27feb61811ce2322c1d288ec55d33dc333c,Fran,+86-823-929-5879,fkobusmq@statcounter.com,Hazelcrest,,,Baisha,false,base.user_admin
__setup__.partner_e2dc6610fb04a1538d2f414a8cf18a5730083624,Dani,,,Mandrake,,,Armenia,false,
__setup__.partner_598f921d7eb01ab50cdc1ae4aa5b585c8d1a8c36,Puff,+33-954-862-1727,pmallonms@delicious.com,Weeping Birch,Court,67080 CEDEX,Strasbourg,true,base.user_admin
__setup__.partner_6807a292e3c21ad412918b60e9844edd053a63d6,Gabriell,+86-412-685-6623,geddollsmt@a8.net,Hoepker,,,Guangang,false,base.user_admin
__setup__.partner_1a40e7c80e5089d3d1887ca1952deecb532c1482,Henrik,,,Susan,,311,Borgarnes,false,
__setup__.partner_c6ae0d3223ee153ca848c8ab39368271d8bdbe65,Carlyle,,cfeakinsmv@yolasite.com,Fairview,,141707,Novokhovrino,true,base.user_admin
__setup__.partner_cbffafbd8efaa5cb60af9c4c3a80a5e6092de90e,Stephie,,,Sauthoff,,,Bayt Ūlā,true,
__setup__.partner_5c8b50e2425a27e2d6ccc0fbdc2e345ffe42cb29,Griffin,,,3rd,,,Langxi,false,
__setup__.partner_2f7426105b664c72e128cc3eb5ab881c888810fc,Yettie,+52-716-700-7889,yeyrlmy@utexas.edu,Saint Paul,,48744,San Pedro,false,base.user_admin
__setup__.partner_3431443ba3ce4b4020c718f695266672c0269496,Cirillo,,cdriversmz@yandex.ru,Pond,,2710-151,Barrunchal,true,base.user_admin
__setup__.partner_ce1e6cea4011c0f9184a83b455139c6a90158a06,Berkie,+7-659-418-2365,bweinmannn0@ovh.net,Cambridge,,346050,Tarasovskiy,false,base.user_admin
__setup__.partner_053282ab8fd3891f6d76f6408b8113b0f366ae88,Matthias,+7-945-732-3243,,Sage,,180559,Pskov,false,
__setup__.partner_a7ff6b4e7dc3f5d017910d7005eb113ed4c6e060,Vonny,,vgaskaln2@accuweather.com,Chinook,,,Chalaco,false,base.user_admin
__setup__.partner_cdca308d24f3d68ae302e07f541f48f34db45bf4,Reena,,rikinn3@netlog.com,Anthes,,761 51,Norrtälje,true,base.user_admin
__setup__.partner_e7a1ea4ef750f7a82ee1e70d54b0e3a5a62c3940,Morrie,+7-621-934-8027,moddeyn4@spiegel.de,Laurel,,197720,Zelenogorsk,true,base.user_admin
__setup__.partner_9c4d7bfef8b75a0f73f56f938f02ab3f79ee7c29,Twila,+7-475-150-3854,,Carioca,Parkway,,Sastöbe,false,
__setup__.partner_0c96f6e64d88b01410c90a267f2011091e068a33,Mari,+385-903-343-7387,maulettan6@friendfeed.com,Green Ridge,,44320,Repušnica,false,base.user_admin
__setup__.partner_24e3c0667708e3fd180a6bcde22944e6954d131b,Baillie,,,Stuart,Way,32868,Orlando,false,
__setup__.partner_c1a7dfe4d534dda0943fec7d7a0727fcc0d609f2,Keary,,kconeleyn8@wikispaces.com,Luster,,,Bejucal,false,base.user_admin
__setup__.partner_6438a346a96c2429b027893643f789935c2926cf,Donica,,dmerrikinn9@boston.com,Sunnyside,,4715,Dangcalan,false,base.user_admin
__setup__.partner_df03a99870c1423c7974edd704edbfaf023c2138,Kerby,,kjurriesna@flavors.me,Hallows,,,Zyryanovsk,true,base.user_admin
__setup__.partner_bfa07b140cc13bec721ba8a2d955d29910bab4aa,Elisabet,,,Washington,Place,,Baolin,true,
__setup__.partner_441169f18407d119062e14698818eb5bae919a8e,Cassie,+381-786-334-1103,,John Wall,,,Belo Blato,false,
__setup__.partner_d1f274f4a0fe4d02bf7542c53a2b51a66ea3d27a,Bertrand,+48-943-769-5605,,Hoepker,,99-307,Strzelce,true,
__setup__.partner_ebd02222a917d05d90fd5e8f02c4601a307c54fb,Ashlee,,,Hayes,,143969,Vostochnyy,false,
__setup__.partner_c478a982e819561682943ab3d83b64fd17bfa3a7,Cris,+1-259-739-9100,,Dottie,,J4W,Longueuil,false,
__setup__.partner_51a1e3efed228ab5a64706aaf2a6f8b50f93c8d6,Henrieta,,,Barnett,,,Idi Iroko,false,
__setup__.partner_6bed4e83d9b6c9c968d4b7e7bdbe7cfd3281ab75,Louie,+27-158-335-9115,,Garrison,,2410,Mpumalanga,true,
__setup__.partner_ea3f2ce31dba23d0d9345478c1663600a56a3c8e,Rosalia,+86-235-831-3709,,Fordem,,,Kalaxilike,true,
__setup__.partner_f30a28483d6214cb9a4668ccb213aa21e11272af,Natalya,,nhurnnj@goo.ne.jp,Swallow,,72905,Fort Smith,true,base.user_admin
__setup__.partner_12b670131037d5cea2002060526f8cef67359558,Kipp,,ktremmilnk@mysql.com,Westport,,12008,Sibinal,false,base.user_admin
__setup__.partner_002f17216aaa04571a4d1f8116a8b7b5cac8fc43,Vinson,,,Surrey,Trail,,Noebesa,false,
__setup__.partner_5812c595ca7b7f5b9448442555c3eaed7781fb64,Lurlene,,llemmnm@chicagotribune.com,Twin Pines,,2327,Rogoza,true,base.user_admin
__setup__.partner_651ac272c0892f0f5fd6a061fc0021a804035024,Kirstyn,,,Village,,,Baun,false,
__setup__.partner_99b39e706ce88ef65b8383798a7bf24d8cc4fbdb,Carmelita,,ccookeno@posterous.com,Hintze,,243429,Solntsevo,false,base.user_admin
__setup__.partner_c5e45a65d1836968d7b264e36ebbe92296f4ad03,Ozzy,,ojoplinnp@ft.com,Meadow Vale,,,Tieshan,false,base.user_admin
__setup__.partner_3d6b3e8ddfc62972e85229337592bdcb3a8e521e,Cindie,,ccamillettinq@histats.com,Dwight,Way,,T’et’ri Tsqaro,false,base.user_admin
__setup__.partner_5718d374c68f7cd05d875ed042c38944eed57906,Karlee,,ksnodinnr@mac.com,Bluejay,Trail,25676,Kuantan,true,base.user_admin
__setup__.partner_7815946407b077bcfae203b410709d8dc9acc6bb,Virginie,,vbarringerns@cnbc.com,7th,,665911,Kultuk,false,base.user_admin
__setup__.partner_94199b8f489519ded972d2b093d4eb84e737eac2,Isa,,ihairsnt@xinhuanet.com,Oakridge,Parkway,2260-114,Limeiras,true,base.user_admin
__setup__.partner_c6c4e2a20521eaffc6b31e5085db3fa80d4e8a66,Janeen,,,Swallow,,,Eséka,true,
__setup__.partner_d9eff8b8519888f8ca4777dba33038df66a0622b,Britt,+33-326-384-3415,bburgettnv@google.it,Emmet,,68947 CEDEX 9,Mulhouse,false,base.user_admin
__setup__.partner_6e0f5cabb42b038bff2dca46ae75e69a0086b2c0,Etan,,,Hallows,,,Xiyang,false,
__setup__.partner_894260ca01a0c5633e6db0c2d78e4d959f5815e9,Cassie,,,Toban,,11503,Mercedes,false,
__setup__.partner_bfa6ca79270498aab0bbfc17424ced3f4eb359f6,Lina,+7-638-808-3751,,Sutteridge,,457134,Bobrovka,true,
__setup__.partner_13641d82f6e1db7148617311eeb6559e0a5d97f0,Deloris,+86-822-908-3567,,Hintze,,,Rentian,true,
__setup__.partner_8b413e8027f0fa2342b13ee48b870b7d25849437,Adelle,+86-158-798-7612,,Logan,,,Houping,true,
__setup__.partner_538a2634e432240860e8e8f8c2df1b2529d841b2,Augustine,,,Bluestem,,4317,Villa Atamisqui,false,
__setup__.partner_24c73084f865575710b44779e0d960d3ec857f92,Sadye,+63-359-959-3739,,Dottie,,2727,Bantay,false,
__setup__.partner_1bc644830b596592ebb507a10f783d4d9ead0073,Lanny,+54-154-663-6097,,Dorton,,4640,La Falda,false,
__setup__.partner_a4e314958cafd1a9627feb8f5ad51e087ba13ae0,Rudy,,rkydo4@booking.com,Marcy,Drive,62767,Cuauhtemoc,true,base.user_admin
__setup__.partner_8116d8c5b5844839dfcaa4893dadbe9225537413,Larina,,ldougaryo5@wisc.edu,Johnson,,,Ganzhou,false,base.user_admin
__setup__.partner_b4d66376bff331d0ad03a53685f08180c2e414c8,Wait,+81-854-751-6914,,Sycamore,,344-0025,Koshigaya,false,
__setup__.partner_b2536ccb3413a0e2c9001cecd5d0847191e1a22e,Flor,,,Fulton,,,Tafraout,false,
__setup__.partner_0777614fd8d9d16f53bd4c23a232dea6173ed36f,Conroy,+7-875-190-3343,ckaliszo8@so-net.ne.jp,Blackbird,Place,352265,Spokoynaya,true,base.user_admin
__setup__.partner_8a2b4ec05aa8aa37c8778c1e7b35ae8e63d8d985,Garrik,,gwittero9@mlb.com,Eastwood,,88535-000,Correia Pinto,true,base.user_admin
__setup__.partner_fa4e5da4cce8146a8535c3e44911cda47a6e8e28,Fairleigh,+86-365-839-9145,ffrainoa@cbsnews.com,Scott,,,Yongchuan,false,base.user_admin
__setup__.partner_191cd1750fb654b91c6db558ed5da9612e5625fa,Dewie,,,Autumn Leaf,,,Lanjaghbyur,true,
__setup__.partner_9dc33669dd36001216e5d42e255e510c46fcfa39,Gabriel,,gbousquetoc@mashable.com,Petterle,,,Apuri,true,base.user_admin
__setup__.partner_75c400f41d16f8802ade43aab9c9059dca50d79d,Mendel,,,Cardinal,,37795-000,Andradas,false,
__setup__.partner_2fa8528ae35f71636f83a99e33ff4c296478f10a,Bondie,+1-919-322-0625,,Roth,Terrace,27717,Durham,false,
__setup__.partner_e870c8ef1bf1fc1a62c9b560ede2759c751015bd,Rachel,,,Armistice,,,Huibu,false,
__setup__.partner_2416b6ee690a248bc0945a185d04d043702cad6b,Putnem,+54-307-542-8252,pcardusog@kickstarter.com,Hallows,,3374,Libertad,true,base.user_admin
__setup__.partner_da1cc2eb43991ed4b2d07c1203c27ddd937b89a2,Atalanta,,,Kennedy,,,Nāḩiyat Alī ash Sharqī,false,
__setup__.partner_b77f72ae8f975d03e13f53b009e0970ce1a7f6b9,Roarke,+86-909-278-8156,rleareoi@360.cn,Nevada,,,Duofudu,false,base.user_admin
__setup__.partner_99600eb907c4a221edeca47027ae8a6808fd3c4c,Em,,,Glacier Hill,,,Liutangting,false,
__setup__.partner_2f25b40f5470d1e5af8c1a9c4d136ddee031b011,Riva,,rpetroulisok@naver.com,New Castle,,,Yanwukou,true,base.user_admin
__setup__.partner_955dc4844e0e6ad9c1bf44ec82869f226af0fb96,Birdie,+62-932-610-4785,,American,,,Masaran,true,
__setup__.partner_02e2523dc8bb2b11fdef7a198ae219920e76b752,Gerrie,+86-993-515-3384,,Dunning,Drive,,Dongchen,false,
__setup__.partner_60e9d1c032c6051c4a258b15e76ccbdc76b10cdc,Barde,+598-774-518-9329,,Browning,Place,,La Paloma,false,
__setup__.partner_2e3656b2fcdc12f27353c006c5fb34f685d78cbd,Natasha,,,Dakota,Court,,Guojia,true,
__setup__.partner_15f93eb33610e28e9981d7fa5caa5990a99f0164,Stearne,+1-454-847-8124,srandalstonop@google.ca,Ruskin,,10801,Jarabacoa,true,base.user_admin
__setup__.partner_e51c8589c8c5a8d53a186a2a662ba243c0106791,Zackariah,,,Elgar,,3700-803,Paços,true,
__setup__.partner_0c7ae76b1aa58f5a4d24a5e46137d96e5bb7c40a,Fran,,fdommor@princeton.edu,Pierstorff,,,Tianshan,false,base.user_admin
__setup__.partner_9d15753cc708cc097a03d4c08cd6c7490f11b84e,Margot,,mlawfullos@so-net.ne.jp,Vera,,45141,Essen,true,base.user_admin
__setup__.partner_d480e5ee7a5a945f4f363333b94fccdf19c24a1b,Joyce,+1-916-389-6293,jloosmoreot@naver.com,Pankratz,,95852,Sacramento,true,base.user_admin
__setup__.partner_a067adf3d978fdbef36e452b3d60f7bfe8d6f60e,Addy,+1-103-963-6364,anewrickou@utexas.edu,Arizona,,G2L,Sicamous,true,base.user_admin
__setup__.partner_4ba9fa9ebe1c37851dc7da0e4c8b8f3591e3694a,Shepherd,,,Clove,,14276,Buffalo,true,
__setup__.partner_203b708333022be10de9d34872cf964c55f306eb,Coraline,,,Daystar,,,Tangfang,false,
__setup__.partner_6406e2891887111fb360a33fb288c318ca08300b,Charlotta,+967-970-151-9712,,Towne,,,Kitāf,false,
__setup__.partner_0bb166c6ebb87c8df6615e3f1a88d3b09acd9010,Jameson,,jtitheroy@ucoz.com,Scoville,,606930,Pizhma,false,base.user_admin
__setup__.partner_3f5cfbec9c41485a31c8522999142dad0d5bade6,Jone,,jstockhilloz@nps.gov,Fordem,,,Bwizibwera,false,base.user_admin
__setup__.partner_66fd1ce67b6a5edf0da664af9d9a95bfc71bced0,Farra,,,Brickson Park,,,Waitun,false,
__setup__.partner_e0be3bfe4bd626671f2c77a34598054bb9c9236d,Bernardine,,,David,Lane,,Sacsamarca,false,
__setup__.partner_330f5357fa1c6232b19570ecc631eab8d13b806b,Ezechiel,,emcgilbonp2@bbb.org,Pankratz,,760050,Cali,false,base.user_admin
__setup__.partner_ed8ab9f72df9aafdae83595270eeb3beed0741be,Riane,+380-290-688-9263,rmackeyp3@fastcompany.com,Carberry,,,Berehomet,true,base.user_admin
__setup__.partner_0b3a78f4d8f61b25095de8bfca4b3ec65e3f92f7,Earlie,+62-479-245-9291,,Macpherson,,,Pagersari,true,
__setup__.partner_055151e8bbe3a56f2c9f377b69c1f103adedff1d,Cristy,,csantostefanop5@unicef.org,Shoshone,,,Jinling,false,base.user_admin
__setup__.partner_b3fde6e5039df95d7d3ae86ef5d7a407ce1b4cbf,Chadwick,,ckempp6@mlb.com,Gulseth,,6709,Wageningen,false,base.user_admin
__setup__.partner_255662dd939649ea37f2bff0c3f634e87155a4fb,Aundrea,,,Tomscot,,,Tanjungjaya,true,
__setup__.partner_ece6087b413b931ce25859cd95a3b7fe1baa4898,Shaughn,,,Heath,,,Anyama,true,
__setup__.partner_3d854f57cc98d363b8d8477d44a2124dd1f50791,Rivalee,,rseagerp9@cornell.edu,Dorton,,46-233,Bąków,false,base.user_admin
__setup__.partner_d5e3c848ea3abb4eca570e8ca8c53eb72529d258,Theobald,+86-963-434-0455,,Columbus,Terrace,,Daxing,true,
__setup__.partner_d51a3399e47ff2ccf3df4008caf9230d4bbbfd0b,Ruddy,+60-271-898-8834,,Sullivan,,01578,Kangar,true,
__setup__.partner_0572c72fc36ce3f2202d605aff3f9111df490bfa,Skip,,,Gale,,,Kuwumkumambal,true,
__setup__.partner_f22dc9c00ae4b684decfdeb450d42e226eebbdd6,Gabriella,+48-413-843-8576,ggilhoolpd@wordpress.com,Forest Dale,,05-820,Piastów,false,base.user_admin
__setup__.partner_00b2c4964f58b1ca8662fd6ee31bb22fce8c295c,Patrick,,,Heffernan,Point,4910-035,Coutada,false,
__setup__.partner_ec0d0b4234522a99e29b68720bf1c188f340a57b,Kristofor,,,Old Shore,,92083 CEDEX,Paris La Défense,true,
__setup__.partner_541b3bf1acc8ce79dbdf0bd94824b54d22363a38,Mella,+81-829-260-9685,mdarthepg@macromedia.com,Dwight,,883-0103,Tōbetsu,false,base.user_admin
__setup__.partner_49a50e7b4a3f95d1fd36168960e1f6d1caa19535,Jennica,+7-424-856-3382,jheninghamph@elegantthemes.com,Anzinger,,243418,Pochep,false,base.user_admin
__setup__.partner_451a351eea0753cd76c6d7e1f32e70c3f1bcd8ea,Malva,+351-538-995-5618,,Longview,,4830-264,São Pedro,true,
__setup__.partner_c4dafa8188aa39b1af7ff2bc363d30436e88768e,Mark,+216-986-173-4216,,Oriole,,,Menzel Bourguiba,true,
__setup__.partner_da5907211c99b080b3ff739d893befe1ee7491a2,Codi,+81-223-999-2116,,Harbort,,359-1144,Higashimurayama-shi,true,
__setup__.partner_18574afebf2bedd68401bb63cebaf48dc80df135,Tommie,,,Bashford,,4950-221,Várzea,true,
__setup__.partner_a213edcc0a9d019089d217c1d0a4fecc559e19fe,Orlan,,oaberkirderpm@wikimedia.org,Buhler,,3078,Borovan,true,base.user_admin
__setup__.partner_4fcceb30698ac8ea0f5b9fe45e55f29dfd911c29,Page,,pcerecerespn@ibm.com,Maple Wood,Junction,,Gumdag,false,base.user_admin
__setup__.partner_cc663cb160fea8334af8d54ea887681253338ff6,Merrielle,,,Little Fleur,,,Umm al Qaywayn,true,
__setup__.partner_cb2ffd610fea68805b5d64abc7b1c6c7a0d3b267,Agustin,,aobroganpp@github.com,Mesta,,,Taling,true,base.user_admin
__setup__.partner_3140a9ebbf6229409e661e99e99ceb5d95cb2e8e,Alejandrina,+255-704-178-8148,aelecumpq@plala.or.jp,Fuller,Road,,Konde,false,base.user_admin
__setup__.partner_8df71b7d1f45c4a277de858b42a1d198f0cdb028,Basilius,,bpapapr@com.com,Delladonna,,,Berezanka,false,base.user_admin
__setup__.partner_c187674c8451f6c603e834ad9f6e29788006ea6c,Poppy,+1-437-649-5932,pmowsonps@moonfruit.com,Miller,,,Half Way Tree,false,base.user_admin
__setup__.partner_3069c34a384f447c44a6ccbe610aef45a7a9ed41,Vilhelmina,+420-201-163-4257,,Hagan,,517 71,České Meziříčí,false,
__setup__.partner_58e4ba84842dfd94cf05371b6f3f44ecb2f83eda,Aluino,+386-228-173-1110,,Sloan,,9253,Apače,true,
__setup__.partner_bad2bd2440f96bfb700b20786b0aac332c8b65a8,Leonidas,+33-925-320-4826,,Eagle Crest,,08013 CEDEX,Charleville-Mézières,true,
__setup__.partner_cba95c306da71a1328c1dacec041c847dcf0843f,Giacinta,+232-865-930-4511,,Columbus,,,Seidu,false,
__setup__.partner_228327d280659ffb7d69cdc68ce64c42f35fe885,Markos,,msmizpx@amazonaws.com,Dunning,Drive,,Shangshuai,true,base.user_admin
__setup__.partner_a24217eb5a207d015faa223acbed8e7577411557,Otho,,ocrudgintonpy@marketwatch.com,Talmadge,,2741,Salto,false,base.user_admin
__setup__.partner_494daf5dd00516c0a40a33ec5c1b640a1c1560e5,Shelagh,,slazaruspz@addtoany.com,Homewood,,78925 CEDEX 9,Saint-Quentin-en-Yvelines,true,base.user_admin
__setup__.partner_d538c9767af9de60266395d51b429b6286e1fe9f,Kiley,,,Arkansas,Court,,Ganquan,true,
__setup__.partner_f4a9bde6116341729e6dffa384c8f68f33400720,Marwin,+353-120-880-5786,mchessumq1@addtoany.com,Oxford,,R35,Tullamore,false,base.user_admin
__setup__.partner_f84a155cfb9b2f7061de69607349c6aed8838162,Beckie,+55-116-101-1046,bgiannazziq2@alibaba.com,Granby,,99560-000,Sarandi,false,base.user_admin
__setup__.partner_d77a18e13d78a1a4786bdb8e7a43d239ca512d6d,Galven,,,Hazelcrest,,,Mundri,true,
__setup__.partner_445bcf9018b3efa1cc2dd053bc4caf54d7ee67fa,Hyacintha,,htatloweq4@soup.io,Hauk,,142817,Nagornyy,true,base.user_admin
__setup__.partner_3392b97df36e36cfc86e842b8a9446fcd49db60a,Michaeline,,,Lillian,,1122,Budapest,false,
__setup__.partner_339a854e8c9ffea8c751f2d96a3e08aa2e462229,Orton,,ohirtzmannq6@lulu.com,Forest Dale,,646800,Tavricheskoye,true,base.user_admin
__setup__.partner_2683ae79d813ab0b98eada06ecd6d77ea48711c1,Madelina,+63-474-161-6070,mrangerq7@trellian.com,Daystar,,7017,Binucayan,true,base.user_admin
__setup__.partner_aaad528cc85d07e9817df0c9d13731d6bf1bad23,Dunc,+52-368-884-2437,,Crescent Oaks,,27040,Tierra y Libertad,false,
__setup__.partner_05c5b7068fdf03bdad81d307b212c339eb21108b,Debora,+389-914-112-7398,,Kinsman,,6262,Kičevo,false,
__setup__.partner_c17e4d300868198244f082acdbc00af127b190ad,Melvyn,+86-946-967-0712,mpaoloniqa@imgur.com,Reinke,Lane,,Yonglong,true,base.user_admin
__setup__.partner_6ce07af449f5995a4c72d5b00b609eac3eb01140,Judye,+62-764-629-1609,,Erie,,,Pucangkrajan,false,
__setup__.partner_00046e62a389ceb76e3588876b0201e2c51c7912,Josh,+86-345-738-5787,,Stang,,,Zhongzhang,false,
__setup__.partner_d8a1c39619a4118f0eb626d998806b8db939522d,Amye,,,Union,,,Yanggang,false,
__setup__.partner_ab3843bac537daf2b082f412a706a61f71365abf,Kristan,+385-876-162-4233,kmarjotqe@wunderground.com,Cardinal,,23273,Preko,false,base.user_admin
__setup__.partner_f55364c2aa2e1560e6ad0e9919ac9d5545683465,Zita,+52-308-648-8348,zbootmanqf@howstuffworks.com,Chive,,40687,El Aguacate,true,base.user_admin
__setup__.partner_52fbf920097221d25ca19170f95300e8156777f4,Verla,,,Atwood,,,Auna,true,
__setup__.partner_af0f032d2a80da69b9eca31c0dfde007a7557f78,Abigale,+63-288-365-3468,avanichevqh@cnet.com,Hoffman,,6814,San Julian,false,base.user_admin
__setup__.partner_3e6b5b0429f9fd64d904b17a7502594d29c38684,Hadleigh,,,Cottonwood,,,Medang,true,
__setup__.partner_3d1a40716678ed2b0b69424cb0cac8fba7df37b8,Keely,,,Bowman,,3220-313,Pedreira,false,
__setup__.partner_02e8a43d499de07b97643cd2281ab08a52824c3a,Liliane,,,Northridge,Plaza,,Anibare,true,
__setup__.partner_99947183fa70ac9aeb93d61190f0b650e2be14ff,Adoree,+48-358-683-0861,ahogbinql@sphinn.com,Rutledge,,42-680,Tarnowskie Góry,false,base.user_admin
__setup__.partner_1af973a7ffdbfb44f3f7b6f2e13064e3fe1cb221,Charmaine,,cmcaveyqm@vk.com,Montana,Parkway,,Buea,true,base.user_admin
__setup__.partner_f3df37080b81f0da31b22e9be6f16e9532daf67c,Nan,,,Bay,,,Nanniu,true,
__setup__.partner_081b6736ac12a9fcbc27e5228f1959d9fb9f5ad4,Travers,+970-310-118-2522,thayballqo@dailymail.co.uk,Mayer,,,Mardā,true,base.user_admin
__setup__.partner_cb54696065dbd84bcf6f74c1d3d8003976428e58,Rici,,,Hudson,,,‘Alāqahdārī Kirān wa Munjān,true,
__setup__.partner_59ea44b15e7bd8731c47004beea81ddf2fbe1c9a,Allx,,ahallockqq@e-recht24.de,Spaight,,12160,Sam Khok,true,base.user_admin
__setup__.partner_733919291d398ff145cdc3d532de0ce89358b95c,Erda,,,Kinsman,,973 29,Luleå,false,
__setup__.partner_0da3ee7c15f6e1f66a31f5b8fc0a65c2ffd51030,Rafaelita,,rjoskovitchqs@networksolutions.com,Lawn,,665670,Listvyanka,true,base.user_admin
__setup__.partner_f609baa49dea8ba4edb4d740ada800e66978ec48,Rickey,+996-471-194-7024,,Northfield,,,At-Bashi,true,
__setup__.partner_87ef545099466da9448d0174cf1dec6ad92729e1,Ottilie,+386-871-822-2715,oricciardiqu@who.int,Coleman,,9600,Rakičan,false,base.user_admin
__setup__.partner_ad1e85bdf05e015a159d14416f1045b417cf2d0f,Duffie,,ddobleqv@myspace.com,Shelley,Center,1154,Sangali,false,base.user_admin
__setup__.partner_b5c7d2096fc367aa77c6a58e0bcca99f933d20c1,Rebbecca,,rhayseyqw@jigsy.com,Eagle Crest,,2920,Bangui,true,base.user_admin
__setup__.partner_05ebd8a261b0ffbeec0c984e7c15bd634a8cc063,Lewie,,,Fordem,,,Zongga,false,
__setup__.partner_a909d978aa8cec07a4c7030453486f56f5e061cd,Glory,+1-816-493-9495,ggodbyqy@canalblog.com,Charing Cross,,64187,Kansas City,false,base.user_admin
__setup__.partner_15200d1a441cab9eb0d080af273d67a32f117bfe,Dell,+1-702-834-1828,dofeeneyqz@seesaa.net,Charing Cross,,E1C,Moncton,false,base.user_admin
__setup__.partner_5c92f0571c8095403f67dab3a59599bd968dfc65,Rufus,+595-910-148-6370,,Melvin,,,Fram,false,
__setup__.partner_943bf9d4183e4d9b835ff8be369f32d74734709a,Didi,+30-222-281-2408,,Meadow Ridge,,,Kallífytos,false,
__setup__.partner_f04cd2453e0e1e2332bf7a0536075a6a5353f29f,Jobey,,jtottler2@hao123.com,Graedel,,,Kendung Timur,true,base.user_admin
__setup__.partner_5fa4d6815d5c252c9be5801b5b3aeb080e88aca6,Loree,,lmarciekr3@imdb.com,Magdeline,Way,1250,Debar,false,base.user_admin
__setup__.partner_f6ce748a1bf724e7d9aaceceb28b75b17144632d,Elvera,+7-866-382-7334,,Scoville,Circle,141060,Sredniy,false,
__setup__.partner_098c52a5bd29155b123fb7c3ceb0e98375e625de,Anthiathia,,atanfieldr5@zdnet.com,Burrows,,,Guiyang,false,base.user_admin
__setup__.partner_38fdcc26e8769019c1cd82a393e1c9255b9d59f6,Emmet,+62-750-442-3428,emappr6@imageshack.us,Elmside,,,Kendayakan,false,base.user_admin
__setup__.partner_695aa1aced33303f7422d3c7798dfbab3d099411,Saul,+62-396-660-4389,sabbatinir7@spotify.com,Garrison,,,Wolometang,false,base.user_admin
__setup__.partner_8813199a24ede7a5c765afbc33c99f39d95d8809,Zackariah,,,Quincy,Junction,,Rainis,false,
__setup__.partner_61b039588c985e74f85ddb4b13c007e940caba1b,Dar,,,Sugar,Road,2435-010,Casal dos Bernardos,true,
__setup__.partner_65b5002327340b785645a659c4433f2f70387a95,Milty,,mgrocottra@creativecommons.org,Village,,,Tongle,true,base.user_admin
__setup__.partner_70cecdffae0174876fae4839a22dbce56c03074c,Wilie,,,Mendota,,33-160,Ryglice,true,
__setup__.partner_9c99073ecdea3ac50ee52c6dcfaab780a56d89db,Mendie,+55-746-277-3931,mdenisardrc@umich.edu,Towne,,28470-000,Santo Antônio de Pádua,false,base.user_admin
__setup__.partner_2b5ec3ba69ff72572cb920daa4122b2bbe51a42f,Evvy,+357-220-203-6390,erouffrd@globo.com,Grover,Pass,,Tála,false,base.user_admin
__setup__.partner_d903900278db202e02f3fee3e49f26ce8dd62465,Sharleen,,scrockenre@weibo.com,Grasskamp,,4715,Ogod,true,base.user_admin
__setup__.partner_888db5fe2f4cdc7531ccf89cda00eb64d9dabfea,Emory,,,High Crossing,,14085 CEDEX 9,Caen,true,
__setup__.partner_8e3a3e991fd7dae5453e1216cf4bf8d3a0bbff0b,Huntington,,,Scott,,,Hulan,true,
__setup__.partner_e0998616ba5fbc18eda0df2ca8e8f8f2efe2532b,Anni,+81-808-645-4880,,Hudson,Hill,519-0142,Kawage,true,
__setup__.partner_395a41e34fa8e879d78db69f4039b5d2dac55872,Birgit,,bbeinischri@mlb.com,Ruskin,,2670,Chacabuco,false,base.user_admin
__setup__.partner_dcd6e82116edaa794fce256e9037d0da961ed312,Raddie,,,Esker,,32-830,Wojnicz,false,
__setup__.partner_f38a7fe6b3339f639899b708fec688b5abdbb128,Norton,+86-664-148-1901,,Derek,,,Huanshan,true,
__setup__.partner_b76fa78199c9a142977dc78bba51e0a89e0242c4,Jeannette,,jjurekrl@cbsnews.com,Annamark,,,Yajiwa,true,base.user_admin
__setup__.partner_245917032c308cbc4b5159bfb4575003cacc6307,Clayton,,,Saint Paul,Street,,Paraíso de Chabasquén,true,
__setup__.partner_8214a9ae6004aed6649e34f52593ac1dfb69d543,Brander,,batyearn@fda.gov,Brown,,,Jelbuk,true,base.user_admin
__setup__.partner_fdc0ba1a10d058402e0077769151ebdec565f957,Andonis,,averrillsro@stanford.edu,Huxley,,9410,Bual,true,base.user_admin
__setup__.partner_ee4e547457ecaa622684be0045e8be3ab726b9da,Hadria,+234-425-521-4062,,Steensland,,,Yola,false,
__setup__.partner_535ce3c1357017d402d17556b5bb6841fec18efc,Anetta,,,Scott,Park,,Las Carreras,false,
__setup__.partner_48a8d1a2b262d738d7e36370565c009d247c7917,Sean,,,5th,,L-4982,Reckange-sur-Mess,true,
